{"type":"FeatureCollection","features":[{"type":"Feature","properties":{"Id":0},"geometry":{"type":"Polygon","coordinates":[[[77.407622,18.452733],[77.408193,18.452999],[77.408209,18.453012],[77.408222,18.453029],[77.408229,18.453052],[77.408235,18.453081],[77.408297,18.453389],[77.408307,18.453429],[77.408319,18.453456],[77.408335,18.45348],[77.40836,18.453496],[77.408392,18.453506],[77.408427,18.453512],[77.408465,18.453514],[77.408509,18.453507],[77.408548,18.453485],[77.408585,18.453453],[77.408616,18.453411],[77.408681,18.453265],[77.408735,18.453154],[77.408752,18.453113],[77.408765,18.453065],[77.408767,18.453028],[77.408765,18.452978],[77.408753,18.452933],[77.408735,18.452896],[77.408675,18.452834],[77.408443,18.452617],[77.408427,18.452603],[77.408408,18.452592],[77.407852,18.452374],[77.407821,18.452365],[77.407781,18.452361],[77.407756,18.452363],[77.407735,18.45237],[77.407718,18.452383],[77.407708,18.452392],[77.407593,18.452642],[77.407594,18.452641],[77.407591,18.452661],[77.407596,18.452691],[77.407603,18.452708],[77.40761,18.45272],[77.407622,18.452733]]]}}]}