{"type":"FeatureCollection","features":[{"type":"Feature","properties":{"ID":0,"elev":-2395.0},"geometry":{"type":"LineString","coordinates":[[77.526743,18.69634],[77.528213,18.697047],[77.531002,18.698734],[77.531443,18.699071],[77.531712,18.699409],[77.532078,18.700421],[77.532183,18.701096],[77.532181,18.70177],[77.531997,18.702445],[77.531707,18.70312],[77.531467,18.703588],[77.531218,18.703795],[77.530792,18.703803],[77.530455,18.70365],[77.52978,18.70324],[77.529442,18.702918],[77.52918,18.702445],[77.528828,18.701433],[77.528278,18.700421],[77.527755,18.699624],[77.52708,18.69888],[77.526743,18.698665],[77.526068,18.698508],[77.524719,18.698685],[77.524044,18.698631],[77.523369,18.698264],[77.522982,18.697721],[77.522921,18.697047],[77.523096,18.696709],[77.523369,18.696542],[77.524044,18.696344],[77.525393,18.696156],[77.526068,18.696168],[77.526743,18.69634]]}},{"type":"Feature","properties":{"ID":1,"elev":-2395.0},"geometry":{"type":"LineString","coordinates":[[77.52067,18.690243],[77.521088,18.690636],[77.5213,18.690973],[77.521822,18.692323],[77.521925,18.69401],[77.522206,18.695697],[77.522042,18.696034],[77.521682,18.696249],[77.52067,18.696629],[77.519995,18.696756],[77.519657,18.696633],[77.51932,18.696282],[77.518616,18.695022],[77.518379,18.69401],[77.518297,18.691985],[77.51843,18.691311],[77.518585,18.690973],[77.518982,18.690398],[77.51932,18.690113],[77.519657,18.689986],[77.519995,18.689979],[77.52067,18.690243]]}},{"type":"Feature","properties":{"ID":2,"elev":-2395.0},"geometry":{"type":"LineString","coordinates":[[77.531828,18.681188],[77.531467,18.680936],[77.531129,18.680861],[77.530792,18.680906],[77.530117,18.681151],[77.52978,18.681169],[77.528767,18.680968],[77.52843,18.681057],[77.52829,18.681188],[77.528347,18.681526],[77.528767,18.681715],[77.52964,18.681526],[77.52978,18.681286],[77.530117,18.681368],[77.530184,18.681526],[77.530849,18.681863],[77.531467,18.681958],[77.531804,18.681755],[77.531895,18.681526],[77.531828,18.681188]]}},{"type":"Feature","properties":{"ID":3,"elev":-2395.0},"geometry":{"type":"LineString","coordinates":[[77.653273,18.680001],[77.65361,18.680206],[77.653947,18.680545],[77.654371,18.681188],[77.654765,18.6822],[77.65481,18.682875],[77.654709,18.683213],[77.654472,18.68355],[77.653947,18.683949],[77.652935,18.684334],[77.65226,18.684309],[77.651189,18.683888],[77.650728,18.68355],[77.650573,18.68333],[77.650401,18.682875],[77.650377,18.682538],[77.650467,18.681526],[77.650709,18.680851],[77.651248,18.680387],[77.65226,18.680001],[77.652935,18.679926],[77.653273,18.680001]]}},{"type":"Feature","properties":{"ID":5,"elev":-2395.0},"geometry":{"type":"LineString","coordinates":[[77.54613,18.670728],[77.545638,18.670739],[77.545301,18.670847],[77.543824,18.671403],[77.543276,18.671717],[77.543083,18.672078],[77.5431,18.672416],[77.543271,18.672753],[77.54388,18.67309],[77.544458,18.67309],[77.544963,18.672911],[77.546501,18.672078],[77.546916,18.671741],[77.547002,18.671403],[77.546818,18.671066],[77.54613,18.670728]]}},{"type":"Feature","properties":{"ID":6,"elev":-2395.0},"geometry":{"type":"LineString","coordinates":[[77.53127,18.668704],[77.530792,18.668509],[77.530455,18.668526],[77.529992,18.668704],[77.529565,18.669041],[77.529354,18.669379],[77.529286,18.669716],[77.529334,18.670054],[77.529509,18.670391],[77.529839,18.670728],[77.530455,18.67114],[77.531804,18.671744],[77.533154,18.672205],[77.533491,18.672204],[77.533829,18.672067],[77.534094,18.671741],[77.534135,18.671403],[77.53399,18.671066],[77.5337,18.670728],[77.532142,18.669506],[77.53127,18.668704]]}},{"type":"Feature","properties":{"ID":7,"elev":-2395.0},"geometry":{"type":"LineString","coordinates":[[77.495383,18.667017],[77.495201,18.667354],[77.495197,18.667692],[77.495264,18.668367],[77.495503,18.669041],[77.495741,18.669379],[77.496157,18.669716],[77.496713,18.669921],[77.497051,18.669898],[77.49732,18.669716],[77.497469,18.669379],[77.497415,18.668704],[77.497259,18.668367],[77.497029,18.668029],[77.496376,18.66747],[77.495701,18.667092],[77.495383,18.667017]]}},{"type":"Feature","properties":{"ID":8,"elev":-2395.0},"geometry":{"type":"LineString","coordinates":[[77.53654,18.666342],[77.535853,18.666148],[77.535178,18.666108],[77.534166,18.666132],[77.533539,18.666342],[77.533838,18.66668],[77.534841,18.667399],[77.535516,18.667758],[77.536528,18.668092],[77.536895,18.668029],[77.537027,18.667692],[77.53703,18.667354],[77.536865,18.666683],[77.53654,18.666342]]}},{"type":"Feature","properties":{"ID":9,"elev":-2395.0},"geometry":{"type":"LineString","coordinates":[[77.557611,18.664318],[77.55711,18.6641],[77.556773,18.664076],[77.555423,18.664571],[77.554748,18.664708],[77.553736,18.664673],[77.552049,18.664372],[77.551374,18.664473],[77.551038,18.664655],[77.550882,18.664992],[77.550954,18.66533],[77.551699,18.666342],[77.552031,18.667692],[77.552807,18.669041],[77.552876,18.669716],[77.552724,18.670034],[77.552386,18.670038],[77.552049,18.669786],[77.551037,18.668662],[77.550362,18.668194],[77.549687,18.667942],[77.549012,18.667842],[77.548675,18.667856],[77.548259,18.668029],[77.548184,18.668367],[77.548598,18.670054],[77.548494,18.671403],[77.548593,18.671741],[77.549012,18.672286],[77.549875,18.67309],[77.55007,18.673428],[77.549687,18.673706],[77.548337,18.673845],[77.547663,18.673998],[77.546736,18.67444],[77.546405,18.674777],[77.546272,18.675115],[77.546259,18.675452],[77.546449,18.676127],[77.546988,18.676892],[77.547696,18.677477],[77.547783,18.677814],[77.547507,18.678152],[77.546104,18.679164],[77.545881,18.679501],[77.54581,18.679839],[77.545959,18.680513],[77.547356,18.683213],[77.547987,18.6849],[77.548337,18.685331],[77.548675,18.68555],[77.549012,18.685665],[77.549687,18.685726],[77.550362,18.685632],[77.551037,18.685429],[77.551711,18.684952],[77.552386,18.684133],[77.552688,18.68355],[77.552774,18.683213],[77.552864,18.681526],[77.553105,18.680851],[77.553399,18.680511],[77.554778,18.679501],[77.555904,18.678489],[77.557897,18.67579],[77.558041,18.675452],[77.558069,18.675115],[77.557973,18.674777],[77.557288,18.673765],[77.557145,18.673428],[77.557098,18.67309],[77.557159,18.672753],[77.557387,18.672416],[77.558122,18.672034],[77.559472,18.671737],[77.560147,18.671509],[77.561834,18.670546],[77.563183,18.670198],[77.563521,18.670176],[77.563858,18.670262],[77.564593,18.670728],[77.565545,18.671064],[77.56622,18.671047],[77.566489,18.670728],[77.56643,18.670391],[77.566255,18.670054],[77.565883,18.66971],[77.565208,18.669539],[77.564196,18.669531],[77.563858,18.669299],[77.563315,18.667692],[77.563183,18.667442],[77.562846,18.667188],[77.562171,18.667148],[77.560822,18.667467],[77.560147,18.667546],[77.559809,18.667537],[77.559327,18.667354],[77.559135,18.667196],[77.558797,18.666616],[77.558225,18.664992],[77.557994,18.664655],[77.557611,18.664318]]}},{"type":"Feature","properties":{"ID":10,"elev":-2395.0},"geometry":{"type":"LineString","coordinates":[[77.500346,18.659594],[77.499413,18.659351],[77.497726,18.659563],[77.496038,18.659486],[77.495701,18.659518],[77.495606,18.659594],[77.495672,18.659931],[77.496032,18.660269],[77.496766,18.660606],[77.4984,18.661144],[77.499413,18.661285],[77.500087,18.661195],[77.500425,18.661048],[77.500828,18.660606],[77.500867,18.660269],[77.500732,18.659931],[77.500346,18.659594]]}},{"type":"Feature","properties":{"ID":11,"elev":-2395.0},"geometry":{"type":"LineString","coordinates":[[77.4652,18.642386],[77.464997,18.642325],[77.464554,18.642386],[77.46449,18.642723],[77.464997,18.64289],[77.465334,18.642784],[77.465402,18.642723],[77.4652,18.642386]]}},{"type":"Feature","properties":{"ID":12,"elev":-2395.0},"geometry":{"type":"LineString","coordinates":[[77.35989,18.518893],[77.359724,18.518708],[77.359387,18.518603],[77.359049,18.518843],[77.358843,18.519568],[77.358903,18.520243],[77.359049,18.520683],[77.359387,18.521077],[77.359724,18.521155],[77.360073,18.520918],[77.360263,18.520243],[77.360215,18.519568],[77.35989,18.518893]]}},{"type":"Feature","properties":{"ID":13,"elev":-2395.0},"geometry":{"type":"LineString","coordinates":[[77.362699,18.499661],[77.362423,18.499475],[77.362086,18.499406],[77.361748,18.499451],[77.360736,18.499806],[77.360061,18.500141],[77.359387,18.500629],[77.359048,18.50101],[77.358943,18.501348],[77.359006,18.501685],[77.359387,18.502195],[77.360061,18.502727],[77.360399,18.502812],[77.360736,18.502787],[77.361411,18.502518],[77.361748,18.502287],[77.362345,18.501685],[77.362863,18.50101],[77.363018,18.500673],[77.363043,18.500335],[77.362941,18.499998],[77.362699,18.499661]]}},{"type":"Feature","properties":{"ID":14,"elev":-2395.0},"geometry":{"type":"LineString","coordinates":[[77.582821,18.149089],[77.582079,18.14893],[77.581404,18.148977],[77.580729,18.149225],[77.580054,18.149671],[77.579197,18.150439],[77.578673,18.151114],[77.578389,18.151789],[77.578287,18.152463],[77.578346,18.153138],[77.578601,18.153813],[77.579051,18.154488],[77.579717,18.155162],[77.580391,18.155659],[77.581066,18.156021],[77.581741,18.156243],[77.582753,18.156378],[77.583428,18.15633],[77.583958,18.156175],[77.58444,18.155916],[77.584914,18.1555],[77.585162,18.155163],[77.585441,18.154488],[77.585551,18.153476],[77.585366,18.152126],[77.58512,18.151451],[77.584778,18.150834],[77.583766,18.149673],[77.582821,18.149089]]}},{"type":"Feature","properties":{"ID":15,"elev":-2395.0},"geometry":{"type":"LineString","coordinates":[[77.999963,18.521152],[77.999795,18.521152],[77.999457,18.521336],[77.998108,18.522277],[77.996313,18.523279],[77.993046,18.525574],[77.992453,18.526316],[77.991697,18.527744],[77.990663,18.529015],[77.989993,18.52969],[77.988323,18.531027],[77.986022,18.533402],[77.985639,18.534077],[77.985459,18.534751],[77.985374,18.537113],[77.985245,18.537788],[77.984547,18.539813],[77.983728,18.5415],[77.983534,18.543187],[77.983056,18.544536],[77.983037,18.544874],[77.983213,18.545549],[77.983608,18.546561],[77.984301,18.54791],[77.984371,18.548248],[77.984252,18.548923],[77.983764,18.549598],[77.982249,18.550934],[77.9809,18.551605],[77.978225,18.552634],[77.977686,18.552972],[77.976851,18.553677],[77.976176,18.554381],[77.975229,18.555671],[77.972994,18.55837],[77.971452,18.560472],[77.97054,18.562082],[77.968594,18.564444],[77.967397,18.566131],[77.966728,18.566847],[77.966054,18.567405],[77.964278,18.568493],[77.963859,18.56883],[77.963615,18.569167],[77.963492,18.569505],[77.963293,18.570517],[77.962976,18.571529],[77.962927,18.572204],[77.96307,18.573554],[77.962922,18.574229],[77.961873,18.576928],[77.961057,18.578278],[77.960406,18.578952],[77.959305,18.579746],[77.957618,18.580437],[77.955931,18.580924],[77.954919,18.581406],[77.953569,18.581891],[77.952894,18.582267],[77.951882,18.583001],[77.950195,18.583864],[77.948846,18.584864],[77.946383,18.58705],[77.945809,18.587791],[77.944682,18.590087],[77.943417,18.592111],[77.94311,18.592505],[77.94176,18.593753],[77.941085,18.594564],[77.938944,18.598185],[77.93845,18.599197],[77.937683,18.602234],[77.937105,18.603583],[77.936689,18.604258],[77.934279,18.606958],[77.933269,18.60797],[77.932037,18.608982],[77.929696,18.610669],[77.924889,18.614755],[77.924214,18.615202],[77.923202,18.615688],[77.92213,18.616068],[77.921178,18.616281],[77.918478,18.616621],[77.916117,18.616779],[77.912742,18.61664],[77.910043,18.616801],[77.907006,18.617303],[77.905319,18.617781],[77.904645,18.61821],[77.903295,18.61935],[77.902628,18.620117],[77.900933,18.622353],[77.900547,18.623153],[77.900394,18.623828],[77.900496,18.624503],[77.900692,18.62484],[77.901916,18.62619],[77.902352,18.626865],[77.902784,18.627877],[77.90305,18.628889],[77.903326,18.630914],[77.903416,18.633613],[77.903204,18.634963],[77.902586,18.636312],[77.901945,18.637226],[77.90127,18.637728],[77.898909,18.639059],[77.895534,18.640491],[77.894185,18.641133],[77.89351,18.641589],[77.892893,18.642386],[77.891485,18.6451],[77.890811,18.646069],[77.8844,18.653223],[77.883725,18.653871],[77.88305,18.654312],[77.882038,18.654631],[77.879001,18.65493],[77.877314,18.655308],[77.876302,18.655745],[77.872143,18.657907],[77.871241,18.658201],[77.866854,18.658288],[77.864492,18.65859],[77.863143,18.658581],[77.862468,18.658436],[77.862014,18.658244],[77.86164,18.657907],[77.860965,18.656557],[77.86053,18.655882],[77.860106,18.655471],[77.859431,18.655141],[77.858756,18.655003],[77.857744,18.654946],[77.85572,18.655126],[77.85437,18.655379],[77.852683,18.655906],[77.850659,18.657067],[77.848634,18.658743],[77.846625,18.661281],[77.845935,18.661974],[77.84526,18.662455],[77.844585,18.662798],[77.843573,18.663148],[77.842898,18.663254],[77.841548,18.663233],[77.835475,18.662647],[77.834393,18.662293],[77.83073,18.660606],[77.829843,18.660269],[77.828727,18.660083],[77.828052,18.660169],[77.827715,18.660313],[77.827328,18.660606],[77.826028,18.661966],[77.825015,18.662828],[77.822316,18.66448],[77.820539,18.665667],[77.819954,18.666141],[77.819617,18.666549],[77.819279,18.66717],[77.81849,18.669379],[77.818143,18.670054],[77.81616,18.672416],[77.815568,18.673039],[77.814893,18.67359],[77.813543,18.674437],[77.812531,18.674898],[77.809832,18.675807],[77.806795,18.676387],[77.803758,18.677452],[77.802746,18.678029],[77.801396,18.679043],[77.799035,18.681243],[77.798022,18.681968],[77.795323,18.683119],[77.788575,18.685275],[77.784863,18.687128],[77.783775,18.687599],[77.780139,18.688677],[77.779127,18.688844],[77.777778,18.688892],[77.774066,18.688525],[77.772042,18.688548],[77.770355,18.688841],[77.768667,18.689344],[77.76698,18.689692],[77.763269,18.690004],[77.762257,18.690221],[77.761582,18.690529],[77.760951,18.690973],[77.759557,18.692115],[77.75787,18.693736],[77.756858,18.694376],[77.754834,18.695257],[77.752472,18.696069],[77.749435,18.697472],[77.746736,18.698359],[77.744036,18.698827],[77.739987,18.699045],[77.736613,18.698805],[77.734517,18.698396],[77.733577,18.69812],[77.732902,18.697822],[77.730954,18.696372],[77.730356,18.695697],[77.729983,18.695022],[77.729778,18.694347],[77.729385,18.691311],[77.729667,18.689286],[77.729659,18.688274],[77.729505,18.687599],[77.729349,18.687262],[77.729117,18.686924],[77.728748,18.686587],[77.728164,18.686249],[77.727503,18.685992],[77.726491,18.685752],[77.723454,18.685465],[77.721767,18.685391],[77.719405,18.684912],[77.717381,18.684282],[77.714682,18.682908],[77.713688,18.682538],[77.71232,18.682158],[77.709958,18.681905],[77.708608,18.681549],[77.707933,18.681199],[77.705909,18.67991],[77.704056,18.678489],[77.701522,18.676889],[77.697473,18.673572],[77.696461,18.672997],[77.695008,18.672416],[77.693425,18.672087],[77.691063,18.671961],[77.686339,18.672407],[77.68364,18.672406],[77.679928,18.672989],[77.679253,18.672837],[77.677566,18.672197],[77.676554,18.672092],[77.673517,18.672448],[77.671493,18.672996],[77.670481,18.673157],[77.668119,18.673209],[77.666432,18.672823],[77.666094,18.672893],[77.663395,18.674341],[77.662383,18.674719],[77.66137,18.67494],[77.661033,18.674921],[77.660358,18.674716],[77.658671,18.673642],[77.657996,18.673296],[77.657321,18.673116],[77.656647,18.673113],[77.65584,18.673428],[77.653712,18.675115],[77.653376,18.675452],[77.652935,18.676321],[77.652598,18.676613],[77.651923,18.676664],[77.650911,18.676368],[77.650772,18.676464],[77.650803,18.677139],[77.650405,18.678152],[77.649561,18.67946],[77.648447,18.680513],[77.648193,18.680851],[77.648063,18.681188],[77.648035,18.681863],[77.648296,18.683213],[77.649165,18.685912],[77.649561,18.686661],[77.649898,18.686923],[77.650236,18.687038],[77.65226,18.687103],[77.653115,18.687262],[77.653947,18.687556],[77.654435,18.687936],[77.65496,18.688977],[77.655085,18.689624],[77.65506,18.689961],[77.654622,18.691058],[77.654285,18.691595],[77.653947,18.691945],[77.652935,18.69265],[77.652598,18.692988],[77.652287,18.693673],[77.652247,18.696372],[77.652407,18.697047],[77.652805,18.698059],[77.652808,18.698396],[77.652316,18.698734],[77.648211,18.699772],[77.647537,18.699806],[77.646862,18.699684],[77.645512,18.699051],[77.644837,18.698879],[77.644162,18.698939],[77.64315,18.699202],[77.642612,18.699409],[77.642152,18.699746],[77.641941,18.700083],[77.641773,18.700758],[77.641836,18.70177],[77.642499,18.704132],[77.643269,18.705819],[77.64372,18.708181],[77.64377,18.708856],[77.643582,18.709868],[77.643159,18.710543],[77.642475,18.710909],[77.641801,18.710946],[77.641126,18.710783],[77.640451,18.710336],[77.640071,18.709868],[77.639101,18.708019],[77.638426,18.707316],[77.638089,18.707217],[77.637752,18.707228],[77.637077,18.707432],[77.63539,18.708274],[77.63269,18.708612],[77.631678,18.708953],[77.630376,18.709531],[77.629654,18.709674],[77.628641,18.709627],[77.627967,18.709477],[77.627324,18.709193],[77.62628,18.708552],[77.625942,18.708463],[77.624592,18.708459],[77.623642,18.708181],[77.623128,18.707844],[77.622045,18.706832],[77.620544,18.70562],[77.620095,18.705145],[77.619619,18.70447],[77.619363,18.703795],[77.619376,18.70312],[77.620001,18.70177],[77.61993,18.701433],[77.619707,18.701096],[77.618969,18.700421],[77.618449,18.700083],[77.617844,18.69979],[77.617169,18.699656],[77.616495,18.699816],[77.61582,18.700305],[77.615568,18.700758],[77.615421,18.702108],[77.615008,18.702445],[77.613795,18.702764],[77.613458,18.702991],[77.613228,18.703457],[77.613052,18.70447],[77.61282,18.704807],[77.612108,18.70529],[77.611433,18.705499],[77.610759,18.705383],[77.608059,18.703943],[77.606372,18.703254],[77.605023,18.70316],[77.602998,18.703337],[77.601986,18.703516],[77.600974,18.703858],[77.600299,18.703883],[77.597937,18.703296],[77.597503,18.70312],[77.596587,18.702535],[77.595912,18.702356],[77.595473,18.702445],[77.5949,18.70278],[77.594576,18.70312],[77.594396,18.703457],[77.594332,18.703795],[77.594372,18.704132],[77.594688,18.705145],[77.594723,18.705482],[77.594601,18.706157],[77.59444,18.706494],[77.593888,18.707138],[77.593551,18.70735],[77.592876,18.707598],[77.591864,18.707665],[77.590514,18.707471],[77.588489,18.707347],[77.587605,18.707169],[77.58714,18.706963],[77.586802,18.706705],[77.58591,18.705482],[77.585453,18.705052],[77.584778,18.704699],[77.584103,18.704549],[77.583428,18.704523],[77.582753,18.704676],[77.582515,18.704807],[77.582182,18.705145],[77.581741,18.706045],[77.581404,18.706215],[77.580729,18.706136],[77.579042,18.705423],[77.578367,18.705011],[77.576874,18.703795],[77.576553,18.703457],[77.576405,18.70312],[77.576486,18.702783],[77.577692,18.701849],[77.578209,18.701096],[77.578654,18.700083],[77.578716,18.699746],[77.578674,18.699409],[77.578483,18.699071],[77.57803,18.698736],[77.577692,18.698619],[77.575668,18.698269],[77.574942,18.698059],[77.574176,18.697721],[77.572968,18.69702],[77.572294,18.696776],[77.570944,18.696602],[77.568919,18.696638],[77.568245,18.696577],[77.56757,18.696368],[77.566895,18.695981],[77.56569,18.695022],[77.565208,18.69437],[77.564871,18.693622],[77.564091,18.691311],[77.563521,18.690431],[77.562426,18.689286],[77.562256,18.688949],[77.561937,18.687599],[77.561738,18.687262],[77.561496,18.687073],[77.561159,18.686983],[77.559441,18.687262],[77.559135,18.68708],[77.558441,18.685575],[77.558122,18.685076],[77.557785,18.684794],[77.55711,18.684594],[77.556435,18.684647],[77.55576,18.684854],[77.554411,18.685588],[77.552891,18.686249],[77.552885,18.686587],[77.553577,18.687599],[77.553616,18.687936],[77.553481,18.688274],[77.552258,18.689286],[77.551821,18.689961],[77.551412,18.690973],[77.551199,18.691311],[77.550859,18.691648],[77.550362,18.691909],[77.549687,18.692079],[77.548337,18.692222],[77.544963,18.692126],[77.544288,18.691918],[77.543276,18.691089],[77.542601,18.690797],[77.539227,18.690001],[77.537878,18.689883],[77.537203,18.689931],[77.536191,18.690296],[77.535149,18.690973],[77.533491,18.69261],[77.532323,18.693335],[77.531911,18.693673],[77.531129,18.694673],[77.530792,18.694986],[77.530117,18.695262],[77.529442,18.695188],[77.527755,18.69447],[77.526068,18.693955],[77.524401,18.692998],[77.523967,18.69266],[77.523718,18.692323],[77.523613,18.691985],[77.523632,18.691648],[77.523937,18.690636],[77.524435,18.689624],[77.525566,18.688274],[77.525827,18.687599],[77.525801,18.687262],[77.525435,18.686587],[77.524542,18.685575],[77.523706,18.684255],[77.522357,18.682523],[77.521959,18.6822],[77.520111,18.681188],[77.519436,18.680513],[77.519355,18.680176],[77.519348,18.679501],[77.519242,18.679164],[77.518982,18.67899],[77.518645,18.678992],[77.518206,18.679164],[77.518038,18.679501],[77.518208,18.679839],[77.518739,18.680513],[77.518778,18.680851],[77.518544,18.681526],[77.518027,18.6822],[77.517664,18.682538],[77.516283,18.683615],[77.515608,18.68386],[77.514259,18.683801],[77.513584,18.683655],[77.512909,18.683392],[77.512228,18.682875],[77.511979,18.682538],[77.511278,18.681188],[77.510022,18.679839],[77.509588,18.679164],[77.509385,18.678152],[77.509556,18.676464],[77.509545,18.67579],[77.509051,18.67309],[77.508716,18.672416],[77.507541,18.671066],[77.507173,18.670401],[77.506144,18.667354],[77.505486,18.664612],[77.505204,18.66398],[77.504814,18.663643],[77.504136,18.663443],[77.502787,18.663375],[77.502112,18.663402],[77.501573,18.663643],[77.501468,18.66398],[77.501611,18.664318],[77.502787,18.66562],[77.503013,18.666005],[77.50315,18.66668],[77.502938,18.667354],[77.502449,18.667825],[77.5011,18.668478],[77.500762,18.668787],[77.49975,18.670058],[77.49876,18.670728],[77.498431,18.671066],[77.498293,18.671403],[77.498243,18.672078],[77.49834,18.672753],[77.498703,18.673765],[77.498747,18.674103],[77.498542,18.67444],[77.498063,18.67454],[77.497726,18.674503],[77.496376,18.67414],[77.495701,18.673827],[77.495261,18.673428],[77.495075,18.67309],[77.494781,18.672078],[77.494351,18.6714],[77.493677,18.670841],[77.491777,18.669716],[77.491142,18.669041],[77.490942,18.668704],[77.490852,18.668367],[77.490973,18.668029],[77.491317,18.667692],[77.491816,18.667354],[77.493735,18.666342],[77.493935,18.666005],[77.493605,18.66533],[77.493016,18.664655],[77.491652,18.663803],[77.491126,18.663305],[77.490688,18.662631],[77.490321,18.661618],[77.489905,18.660944],[77.488953,18.660164],[77.487941,18.659724],[77.486928,18.659634],[77.484566,18.659898],[77.483892,18.659812],[77.483129,18.659594],[77.482601,18.659256],[77.482346,18.658919],[77.481746,18.657569],[77.481248,18.656895],[77.479694,18.655882],[77.47883,18.6555],[77.478156,18.655489],[77.477818,18.655602],[77.477429,18.655882],[77.477245,18.65622],[77.476946,18.657907],[77.477005,18.658244],[77.477198,18.658582],[77.477578,18.658919],[77.478311,18.659256],[77.478792,18.659594],[77.478865,18.659931],[77.478679,18.660269],[77.477316,18.661281],[77.477117,18.661618],[77.477036,18.661956],[77.477278,18.66533],[77.477574,18.66668],[77.477662,18.668367],[77.47784,18.669041],[77.478198,18.669716],[77.47883,18.670401],[77.479884,18.671066],[77.482206,18.672078],[77.483554,18.673387],[77.484566,18.674124],[77.486449,18.67579],[77.487266,18.676795],[77.488022,18.678152],[77.488615,18.679011],[77.490731,18.681188],[77.491191,18.681863],[77.49172,18.682875],[77.492085,18.684562],[77.49279,18.686249],[77.493002,18.687026],[77.493274,18.688611],[77.493342,18.689286],[77.493295,18.689624],[77.493002,18.690025],[77.492664,18.690107],[77.49199,18.689977],[77.488615,18.688459],[77.486591,18.687732],[77.482453,18.685912],[77.481534,18.685237],[77.480518,18.684162],[77.479466,18.683213],[77.479265,18.682875],[77.478941,18.681526],[77.478576,18.680513],[77.478156,18.679852],[77.477818,18.679622],[77.477481,18.67952],[77.476806,18.679585],[77.476266,18.679839],[77.475119,18.680677],[77.474782,18.680816],[77.474107,18.680915],[77.473094,18.680685],[77.471745,18.679965],[77.47107,18.679442],[77.470395,18.678743],[77.46939,18.677477],[77.469085,18.676802],[77.469059,18.676127],[77.469341,18.674777],[77.46967,18.674103],[77.470591,18.672753],[77.470765,18.672078],[77.470712,18.671741],[77.470395,18.671268],[77.46972,18.670874],[77.469046,18.670726],[77.467021,18.670655],[77.466346,18.670443],[77.465811,18.670054],[77.465586,18.669716],[77.465486,18.669041],[77.465988,18.66668],[77.465823,18.666005],[77.465491,18.665667],[77.464997,18.665466],[77.464322,18.66543],[77.462297,18.665928],[77.461622,18.665944],[77.460948,18.665712],[77.459598,18.664806],[77.458586,18.664493],[77.457911,18.664532],[77.456561,18.664913],[77.455886,18.665011],[77.454874,18.665038],[77.454199,18.664959],[77.453187,18.664592],[77.449813,18.662773],[77.449158,18.662293],[77.447789,18.661085],[77.446101,18.660013],[77.442848,18.657569],[77.441217,18.65622],[77.440145,18.655208],[77.439586,18.654533],[77.439199,18.653858],[77.439045,18.653183],[77.43906,18.651833],[77.438948,18.651496],[77.438714,18.651159],[77.438341,18.65092],[77.436654,18.650478],[77.435453,18.649809],[77.435076,18.649472],[77.434744,18.648797],[77.434497,18.647447],[77.434292,18.646934],[77.43328,18.646024],[77.43295,18.645423],[77.432752,18.644748],[77.432355,18.64441],[77.431255,18.643865],[77.430033,18.643398],[77.427544,18.642701],[77.426532,18.64257],[77.425857,18.642671],[77.425182,18.642664],[77.42417,18.642397],[77.423832,18.642199],[77.423157,18.641579],[77.421672,18.639687],[77.421271,18.639349],[77.420796,18.639086],[77.420121,18.638978],[77.418096,18.639497],[77.417084,18.639478],[77.415734,18.639104],[77.41371,18.638132],[77.411019,18.636312],[77.408616,18.634288],[77.407299,18.633062],[77.406603,18.632263],[77.405612,18.630295],[77.404937,18.629526],[77.40325,18.628393],[77.401226,18.626632],[77.400213,18.626011],[77.398526,18.62521],[77.397702,18.624503],[77.395643,18.621466],[77.395366,18.620791],[77.395093,18.619104],[77.395185,18.61708],[77.395025,18.616068],[77.393959,18.613368],[77.392968,18.612019],[77.392644,18.611344],[77.392579,18.611007],[77.392616,18.610332],[77.39304,18.609319],[77.393465,18.608789],[77.393803,18.608553],[77.39414,18.608445],[77.394815,18.608524],[77.396164,18.609126],[77.396833,18.609319],[77.398526,18.609513],[77.399539,18.60948],[77.401226,18.609133],[77.40325,18.60918],[77.405612,18.608496],[77.406624,18.608356],[77.407974,18.608478],[77.408513,18.608645],[77.409324,18.609086],[77.409661,18.609073],[77.410483,18.606958],[77.410548,18.606283],[77.410334,18.605271],[77.409998,18.604323],[77.409661,18.603651],[77.409324,18.603202],[77.407637,18.601412],[77.405822,18.600209],[77.40553,18.599872],[77.40546,18.599535],[77.4057,18.598522],[77.405649,18.597847],[77.405275,18.597],[77.404797,18.596498],[77.403925,18.595958],[77.402238,18.595652],[77.4019,18.595501],[77.40101,18.594811],[77.400213,18.594424],[77.397993,18.593799],[77.397919,18.593461],[77.398133,18.592786],[77.398091,18.592449],[77.396909,18.590424],[77.39666,18.58975],[77.396395,18.5884],[77.396264,18.588063],[77.396026,18.587725],[77.395631,18.587388],[77.39414,18.586539],[77.393465,18.585893],[77.39279,18.58481],[77.391121,18.581652],[77.389754,18.579915],[77.388741,18.579096],[77.387392,18.578439],[77.386913,18.57794],[77.386717,18.577591],[77.386557,18.576928],[77.386607,18.575578],[77.386459,18.574566],[77.386223,18.573891],[77.385964,18.573554],[77.385503,18.573216],[77.38503,18.572998],[77.383343,18.572582],[77.381318,18.571872],[77.380981,18.571604],[77.380413,18.570854],[77.379631,18.570607],[77.378956,18.570649],[77.378648,18.570854],[77.378057,18.571867],[77.377607,18.572295],[77.377269,18.572396],[77.376595,18.572294],[77.37592,18.571968],[77.374908,18.571187],[77.374303,18.570854],[77.372883,18.570467],[77.370859,18.569709],[77.370454,18.569505],[77.369003,18.568493],[77.367822,18.568025],[77.365992,18.56748],[77.363647,18.565793],[77.36292,18.565118],[77.362423,18.564458],[77.362013,18.563431],[77.361411,18.561166],[77.361074,18.560322],[77.360736,18.559702],[77.359895,18.558708],[77.359563,18.558033],[77.358712,18.554969],[77.358374,18.554058],[77.358037,18.553541],[77.357025,18.552541],[77.356671,18.551959],[77.356492,18.551285],[77.356421,18.55061],[77.356526,18.548923],[77.35645,18.548248],[77.355391,18.545886],[77.354981,18.544199],[77.354921,18.543524],[77.355029,18.543187],[77.355338,18.542978],[77.357238,18.542512],[77.358154,18.542174],[77.358445,18.541837],[77.356012,18.541344],[77.354325,18.541307],[77.353988,18.541136],[77.353651,18.540802],[77.352301,18.538732],[77.350421,18.535089],[77.349939,18.534491],[77.349058,18.533739],[77.348774,18.533402],[77.348047,18.531715],[77.347135,18.530028],[77.346789,18.529015],[77.346331,18.526316],[77.345666,18.523617],[77.345592,18.522942],[77.345677,18.521255],[77.34589,18.520937],[77.346228,18.521183],[77.347085,18.522605],[77.349264,18.524836],[77.349939,18.52512],[77.350614,18.525211],[77.351289,18.525083],[77.351873,18.524629],[77.352055,18.524292],[77.352114,18.523617],[77.351375,18.520918],[77.351252,18.518556],[77.351056,18.517881],[77.350271,18.516531],[77.350149,18.516194],[77.350153,18.515856],[77.350276,18.515658],[77.350614,18.51543],[77.351964,18.515273],[77.352301,18.515159],[77.352586,18.514844],[77.35261,18.514507],[77.35243,18.514169],[77.352078,18.513832],[77.351558,18.513494],[77.349939,18.512715],[77.347122,18.510795],[77.345215,18.509816],[77.344203,18.509465],[77.343191,18.509241],[77.342516,18.509242],[77.341504,18.509494],[77.340829,18.509449],[77.340491,18.509294],[77.339559,18.508433],[77.339018,18.508096],[77.33813,18.507812],[77.33678,18.507577],[77.335768,18.50711],[77.334755,18.506352],[77.332394,18.504866],[77.330284,18.502697],[77.329357,18.501959],[77.323753,18.498648],[77.321081,18.496961],[77.320286,18.496286],[77.3201,18.495949],[77.320074,18.495612],[77.320246,18.494937],[77.320129,18.493925],[77.320175,18.493587],[77.320393,18.49325],[77.320584,18.493112],[77.320918,18.492912],[77.321259,18.492822],[77.322271,18.492715],[77.323621,18.492757],[77.328345,18.493302],[77.329019,18.493431],[77.330032,18.493758],[77.330369,18.493763],[77.330577,18.493587],[77.330768,18.492575],[77.331234,18.4919],[77.332056,18.491397],[77.333406,18.490908],[77.33377,18.49055],[77.334706,18.488189],[77.335084,18.487514],[77.336463,18.485827],[77.337189,18.484477],[77.337814,18.483802],[77.338804,18.482921],[77.339524,18.482115],[77.339937,18.48144],[77.340956,18.479078],[77.341148,18.478404],[77.341456,18.476379],[77.341873,18.475029],[77.341835,18.474355],[77.341504,18.473661],[77.340239,18.471993],[77.339116,18.469631],[77.338926,18.468619],[77.338729,18.464232],[77.337976,18.46187],[77.336535,18.458159],[77.336319,18.456809],[77.336303,18.45546],[77.336563,18.45411],[77.336974,18.453098],[77.338732,18.450736],[77.340154,18.449009],[77.341331,18.447024],[77.341504,18.446412],[77.341528,18.446012],[77.341124,18.444325],[77.341148,18.44365],[77.34149,18.442975],[77.342411,18.441963],[77.342612,18.441626],[77.342725,18.441288],[77.342772,18.440613],[77.342516,18.439448],[77.342179,18.43879],[77.34177,18.438252],[77.341064,18.437577],[77.338133,18.435215],[77.337134,18.434203],[77.336601,18.433528],[77.33522,18.431166],[77.334651,18.429816],[77.334344,18.428804],[77.333711,18.424418],[77.333613,18.422393],[77.333667,18.420369],[77.333873,18.418682],[77.334622,18.415308],[77.33538,18.411259],[77.336443,18.408577],[77.337117,18.407263],[77.33865,18.404848],[77.341168,18.401136],[77.342109,18.400124],[77.34589,18.396863],[77.346976,18.395738],[77.347994,18.395063],[77.349939,18.394006],[77.350801,18.393376],[77.351289,18.392876],[77.352301,18.391519],[77.353349,18.390339],[77.353994,18.389327],[77.354325,18.388567],[77.354981,18.386627],[77.355872,18.384603],[77.35603,18.383928],[77.356066,18.383253],[77.355967,18.382579],[77.355537,18.381229],[77.354853,18.37853],[77.354325,18.377322],[77.352776,18.374481],[77.352563,18.373806],[77.352498,18.372794],[77.352824,18.369082],[77.353011,18.368407],[77.35355,18.367058],[77.353855,18.365371],[77.354387,18.363683],[77.354811,18.361996],[77.355,18.361569],[77.355407,18.360984],[77.357488,18.35896],[77.360736,18.356582],[77.361411,18.355991],[77.3638,18.352886],[77.364377,18.351874],[77.365123,18.350174],[77.36546,18.349673],[77.365929,18.349175],[77.368159,18.347468],[77.370859,18.345984],[77.371533,18.345503],[77.372883,18.344097],[77.37457,18.342863],[77.37513,18.342089],[77.375408,18.341414],[77.375572,18.340739],[77.37564,18.340065],[77.375577,18.33939],[77.375262,18.338378],[77.374922,18.337703],[77.373895,18.336376],[77.373698,18.336016],[77.373512,18.335341],[77.3735,18.334666],[77.373873,18.331967],[77.374314,18.32758],[77.374902,18.325556],[77.374822,18.323531],[77.374863,18.322519],[77.375542,18.319482],[77.376094,18.318133],[77.376275,18.317458],[77.376276,18.316783],[77.376119,18.315771],[77.376257,18.314843],[77.376932,18.31314],[77.378279,18.310372],[77.378983,18.30936],[77.380172,18.30801],[77.380554,18.307673],[77.381162,18.307336],[77.38368,18.306612],[77.385053,18.305986],[77.386071,18.305311],[77.386396,18.304974],[77.386698,18.304299],[77.38672,18.303287],[77.386533,18.302274],[77.386252,18.3016],[77.385722,18.300925],[77.384797,18.30025],[77.384018,18.299946],[77.381318,18.299628],[77.380306,18.299246],[77.379631,18.298614],[77.377848,18.296201],[77.376507,18.293502],[77.374602,18.288778],[77.371533,18.284848],[77.370184,18.282321],[77.369275,18.279668],[77.369256,18.278993],[77.369356,18.277981],[77.369259,18.277306],[77.369118,18.276969],[77.368454,18.275956],[77.368248,18.275281],[77.368059,18.272245],[77.36808,18.270895],[77.368212,18.27022],[77.368366,18.269883],[77.368834,18.26931],[77.370052,18.268196],[77.370306,18.267858],[77.370554,18.267184],[77.370624,18.265159],[77.370566,18.264147],[77.370229,18.26246],[77.369998,18.260773],[77.369649,18.259423],[77.369581,18.258748],[77.369952,18.255712],[77.370505,18.253012],[77.370446,18.249976],[77.370823,18.247951],[77.371202,18.246939],[77.371903,18.245589],[77.373013,18.243902],[77.374233,18.241503],[77.375702,18.239178],[77.376932,18.237796],[77.377726,18.237154],[77.379382,18.236142],[77.379969,18.235569],[77.380225,18.235129],[77.3804,18.234117],[77.380016,18.231418],[77.380076,18.230406],[77.381164,18.226019],[77.381993,18.224049],[77.382214,18.22332],[77.382342,18.222308],[77.382371,18.219946],[77.383173,18.217247],[77.383385,18.21421],[77.383814,18.212523],[77.385135,18.209486],[77.386255,18.207462],[77.387496,18.205437],[77.389827,18.200039],[77.391055,18.197339],[77.391441,18.196699],[77.394477,18.193392],[77.396839,18.191379],[77.397788,18.190254],[77.399624,18.187554],[77.400102,18.186542],[77.401928,18.181818],[77.402506,18.180806],[77.404286,18.178107],[77.406624,18.175113],[77.407974,18.173533],[77.410592,18.170009],[77.411602,18.168997],[77.414318,18.166635],[77.415566,18.165285],[77.416136,18.164273],[77.41709,18.161911],[77.418813,18.159212],[77.419351,18.158537],[77.420796,18.157073],[77.422145,18.155259],[77.424999,18.151789],[77.427345,18.149427],[77.429202,18.14639],[77.430581,18.144725],[77.432525,18.142004],[77.433587,18.140317],[77.435498,18.137955],[77.437017,18.135255],[77.438004,18.134253],[77.439353,18.133405],[77.440365,18.132998],[77.443065,18.132204],[77.446101,18.130627],[77.447209,18.129857],[77.450488,18.127131],[77.451572,18.125808],[77.453644,18.122771],[77.454239,18.121759],[77.454764,18.120409],[77.455925,18.11636],[77.456439,18.115348],[77.457131,18.114336],[77.458089,18.113324],[77.458975,18.112649],[77.461285,18.111279],[77.462972,18.110175],[77.463984,18.109622],[77.464798,18.109275],[77.466009,18.108923],[77.469383,18.108291],[77.472082,18.107963],[77.473493,18.107588],[77.479168,18.104687],[77.480518,18.103802],[77.483133,18.101852],[77.485241,18.100606],[77.486591,18.099938],[77.489965,18.098426],[77.493002,18.097275],[77.497388,18.095917],[77.500087,18.095206],[77.502112,18.09446],[77.503462,18.093704],[77.504474,18.092925],[77.505358,18.092067],[77.506799,18.09038],[77.508185,18.089207],[77.510547,18.087727],[77.512234,18.086794],[77.513246,18.086338],[77.515608,18.085547],[77.518308,18.084872],[77.51932,18.084534],[77.522694,18.082714],[77.523706,18.082304],[77.526406,18.081938],[77.52978,18.081129],[77.533829,18.079949],[77.536191,18.079018],[77.537642,18.07857],[77.53892,18.078233],[77.544626,18.07706],[77.545638,18.07675],[77.547874,18.075871],[77.54935,18.075121],[77.550634,18.074184],[77.551733,18.073172],[77.553399,18.071422],[77.554122,18.07081],[77.555423,18.070079],[77.558122,18.06891],[77.559472,18.06851],[77.561496,18.068061],[77.56757,18.067333],[77.570269,18.066821],[77.571956,18.066243],[77.574993,18.064619],[77.576343,18.063986],[77.577355,18.063618],[77.58274,18.062374],[77.586465,18.061248],[77.588827,18.060671],[77.590514,18.060441],[77.5949,18.06016],[77.597262,18.059715],[77.598531,18.059338],[77.601311,18.058173],[77.602323,18.057866],[77.602998,18.057804],[77.603673,18.057892],[77.604348,18.058121],[77.606284,18.059],[77.607722,18.059354],[77.609409,18.059358],[77.611096,18.059005],[77.613076,18.058326],[77.614808,18.057568],[77.61582,18.057221],[77.619869,18.056316],[77.620881,18.056],[77.621556,18.055661],[77.62376,18.054277],[77.626617,18.051989],[77.631003,18.049475],[77.63404,18.04799],[77.636402,18.047105],[77.638764,18.046078],[77.642138,18.044438],[77.6445,18.043637],[77.645849,18.043307],[77.647874,18.04317],[77.651585,18.04337],[77.654285,18.043243],[77.656393,18.042805],[77.660696,18.041501],[77.66407,18.040801],[77.668119,18.040318],[77.675498,18.039768],[77.676891,18.039536],[77.680603,18.038722],[77.682627,18.038562],[77.683977,18.038695],[77.686676,18.039165],[77.687689,18.039158],[77.690725,18.03888],[77.692412,18.038933],[77.693425,18.039112],[77.698823,18.040687],[77.700173,18.040795],[77.70321,18.040681],[77.704559,18.0408],[77.706921,18.041434],[77.711307,18.043012],[77.714007,18.043633],[77.716369,18.043791],[77.719743,18.043592],[77.721092,18.043585],[77.725141,18.043973],[77.729865,18.044958],[77.732902,18.045865],[77.734202,18.046179],[77.735938,18.046534],[77.739313,18.046979],[77.742012,18.047703],[77.743242,18.048203],[77.746289,18.050228],[77.748079,18.05124],[77.751797,18.05294],[77.755151,18.054277],[77.75642,18.054614],[77.758208,18.05493],[77.762257,18.055313],[77.764281,18.055627],[77.76833,18.056823],[77.772379,18.058188],[77.773391,18.058645],[77.776091,18.060168],[77.777103,18.06098],[77.778205,18.062037],[77.779127,18.062711],[77.781489,18.064048],[77.782501,18.064436],[77.789924,18.066414],[77.793636,18.067229],[77.795323,18.067465],[77.79701,18.067591],[77.801059,18.067599],[77.802746,18.067418],[77.803758,18.067209],[77.805445,18.06667],[77.80658,18.066086],[77.80747,18.065332],[77.808956,18.063387],[77.810844,18.061362],[77.811519,18.060801],[77.812194,18.060435],[77.813206,18.060118],[77.814555,18.059872],[77.820966,18.059694],[77.823328,18.059405],[77.82434,18.059135],[77.825015,18.05877],[77.825558,18.058326],[77.827539,18.055964],[77.828727,18.054959],[77.831764,18.053163],[77.835475,18.051101],[77.83869,18.049553],[77.840429,18.048878],[77.849309,18.046209],[77.852008,18.045061],[77.854708,18.043575],[77.85572,18.043301],[77.857069,18.043293],[77.859094,18.043504],[77.86348,18.044212],[77.864492,18.044469],[77.865167,18.044728],[77.866561,18.045504],[77.867711,18.046516],[77.868206,18.047191],[77.869891,18.050146],[77.870566,18.050864],[77.871121,18.05124],[77.871916,18.051614],[77.872928,18.051904],[77.876302,18.052299],[77.878326,18.052756],[77.879339,18.053125],[77.882038,18.054491],[77.882713,18.054711],[77.883388,18.054763],[77.883725,18.054583],[77.884012,18.053939],[77.884126,18.052927],[77.884108,18.051577],[77.883775,18.049553],[77.882726,18.046179],[77.882568,18.045166],[77.882577,18.044492],[77.882814,18.043479],[77.883162,18.042805],[77.8844,18.041358],[77.885412,18.040613],[77.888233,18.03943],[77.889798,18.038629],[77.89216,18.036901],[77.894185,18.035641],[77.895872,18.034398],[77.896884,18.033865],[77.899921,18.032646],[77.90397,18.031475],[77.906669,18.030871],[77.908356,18.030771],[77.910043,18.031077],[77.913417,18.032207],[77.914429,18.032729],[77.916791,18.034273],[77.918362,18.035719],[77.919828,18.036812],[77.920495,18.037406],[77.92219,18.039276],[77.924117,18.041117],[77.924961,18.04213],[77.927107,18.045166],[77.927676,18.046516],[77.928987,18.05124],[77.929271,18.05259],[77.929468,18.054614],[77.929515,18.055964],[77.929423,18.056976],[77.929256,18.057988],[77.928767,18.060013],[77.928641,18.061025],[77.928765,18.064062],[77.928649,18.065074],[77.928263,18.066248],[77.927534,18.067436],[77.926726,18.068448],[77.925247,18.069798],[77.922865,18.071375],[77.920503,18.073092],[77.919491,18.073618],[77.917466,18.074415],[77.916454,18.074914],[77.915608,18.075534],[77.914174,18.076883],[77.913417,18.07725],[77.912405,18.077266],[77.911393,18.076905],[77.910718,18.076437],[77.909368,18.075295],[77.908356,18.074666],[77.906332,18.073656],[77.90421,18.072834],[77.901893,18.072159],[77.898234,18.071445],[77.896884,18.071288],[77.896209,18.071332],[77.895872,18.071436],[77.89545,18.071822],[77.895212,18.072497],[77.895169,18.073172],[77.895283,18.074521],[77.895614,18.076546],[77.896017,18.078233],[77.896395,18.079245],[77.897017,18.080257],[77.898004,18.08127],[77.899583,18.082278],[77.900596,18.082741],[77.903771,18.083969],[77.905319,18.084346],[77.907006,18.084562],[77.911055,18.084597],[77.912405,18.084697],[77.913417,18.084989],[77.914429,18.085575],[77.916117,18.086986],[77.918294,18.08903],[77.920739,18.090717],[77.922865,18.092417],[77.924552,18.093617],[77.926914,18.095706],[77.928003,18.096453],[77.932312,18.098979],[77.93483,18.100839],[77.935561,18.101514],[77.936141,18.102189],[77.937711,18.10465],[77.938386,18.105405],[77.939398,18.106174],[77.942097,18.107788],[77.94311,18.108504],[77.945562,18.110962],[77.947475,18.112649],[77.949183,18.114286],[77.949868,18.114673],[77.95087,18.114988],[77.954582,18.115604],[77.956269,18.116033],[77.958293,18.116863],[77.958968,18.117231],[77.959643,18.117718],[77.960321,18.118385],[77.962038,18.120409],[77.963662,18.123109],[77.965913,18.126145],[77.966854,18.127158],[77.968631,18.128845],[77.971153,18.131544],[77.972464,18.133434],[77.974659,18.136943],[77.975447,18.137955],[77.976176,18.138546],[77.977534,18.139304],[77.978548,18.139979],[77.982405,18.143016],[77.983096,18.143691],[77.984739,18.145715],[77.985961,18.146857],[77.986973,18.147449],[77.988323,18.14769],[77.99001,18.147571],[77.992709,18.146985],[77.993721,18.14685],[77.995071,18.146876],[77.995917,18.147065],[77.996758,18.147462],[77.997433,18.148034],[77.997937,18.148752],[77.99912,18.150885],[77.999795,18.151753],[77.999963,18.151753]]}},{"type":"Feature","properties":{"ID":16,"elev":-2395.0},"geometry":{"type":"LineString","coordinates":[[77.989151,18.005352],[77.988323,18.005104],[77.98731,18.005189],[77.986636,18.005411],[77.986201,18.005689],[77.985961,18.005953],[77.985754,18.006364],[77.985763,18.007039],[77.98608,18.007714],[77.986636,18.008333],[77.98731,18.008609],[77.987985,18.008541],[77.988998,18.008132],[77.989672,18.007567],[77.989967,18.007039],[77.990025,18.006364],[77.989672,18.005734],[77.989151,18.005352]]}},{"type":"Feature","properties":{"ID":17,"elev":-2395.0},"geometry":{"type":"LineString","coordinates":[[77.999963,17.942845],[77.998108,17.942786],[77.996421,17.942413],[77.995408,17.94197],[77.99454,17.941244],[77.993967,17.940231],[77.993452,17.938544],[77.993318,17.937532],[77.993275,17.934833],[77.993115,17.93382],[77.992709,17.93269],[77.992093,17.931459],[77.989672,17.92831],[77.98849,17.927072],[77.987315,17.92606],[77.985961,17.925054],[77.984611,17.924355],[77.983599,17.924066],[77.982587,17.923945],[77.981574,17.924005],[77.980562,17.924201],[77.979213,17.924601],[77.974489,17.926512],[77.97044,17.927567],[77.969455,17.928084],[77.968753,17.928722],[77.968078,17.929674],[77.967418,17.931121],[77.966597,17.93382],[77.966359,17.935508],[77.966421,17.937195],[77.966977,17.940231],[77.967596,17.942593],[77.968367,17.944618],[77.969961,17.947317],[77.97048,17.947992],[77.971115,17.94859],[77.972127,17.949132],[77.973814,17.949558],[77.975501,17.949788],[77.977526,17.949879],[77.979213,17.949813],[77.981237,17.949581],[77.987648,17.948552],[77.989672,17.948479],[77.990347,17.948577],[77.991022,17.94882],[77.991697,17.949284],[77.991994,17.949679],[77.99212,17.950016],[77.992174,17.950691],[77.991989,17.951703],[77.991719,17.952378],[77.991229,17.953053],[77.990515,17.953728],[77.987494,17.95609],[77.986825,17.956764],[77.986429,17.957439],[77.986211,17.958114],[77.98623,17.959126],[77.986635,17.960139],[77.987985,17.961851],[77.98993,17.964525],[77.992216,17.968236],[77.99263,17.969249],[77.993265,17.972285],[77.99348,17.97431],[77.993617,17.977009],[77.994311,17.980721],[77.994343,17.982745],[77.994238,17.983757],[77.99392,17.985107],[77.993594,17.986119],[77.992619,17.988481],[77.992211,17.990168],[77.99209,17.991518],[77.992103,17.993205],[77.992188,17.99388],[77.992372,17.994498],[77.992711,17.995229],[77.993424,17.996242],[77.994059,17.996922],[77.994734,17.997409],[77.995746,17.997882],[77.996758,17.9982],[77.998783,17.998592],[77.999963,17.998716]]}},{"type":"Feature","properties":{"ID":18,"elev":-2395.0},"geometry":{"type":"LineString","coordinates":[[77.999963,18.008972],[77.999795,18.008972],[77.999457,18.009182],[77.998233,18.010076],[77.995393,18.012775],[77.993721,18.013842],[77.992709,18.014223],[77.991697,18.014447],[77.990685,18.014498],[77.988998,18.014418],[77.98731,18.014596],[77.986636,18.014906],[77.985881,18.015474],[77.985288,18.015812],[77.983606,18.016486],[77.982924,18.016676],[77.982249,18.016725],[77.981574,18.016634],[77.9782,18.015806],[77.977526,18.015727],[77.975838,18.015797],[77.973477,18.016221],[77.971452,18.016186],[77.969765,18.015813],[77.966728,18.014613],[77.965041,18.014321],[77.964029,18.014298],[77.963354,18.014366],[77.961667,18.014799],[77.960992,18.015192],[77.960436,18.015812],[77.96012,18.016486],[77.960042,18.017161],[77.960184,18.017499],[77.960542,18.017836],[77.962005,18.01874],[77.962679,18.019259],[77.963354,18.019927],[77.964029,18.020798],[77.964747,18.021885],[77.965056,18.02256],[77.965227,18.023235],[77.965346,18.024584],[77.965316,18.025259],[77.96513,18.025934],[77.964735,18.026609],[77.96444,18.026946],[77.963692,18.027541],[77.963017,18.027914],[77.962342,18.028169],[77.961667,18.028305],[77.960655,18.028293],[77.95998,18.028132],[77.958968,18.027724],[77.957956,18.027194],[77.956943,18.026496],[77.955256,18.024798],[77.954244,18.023953],[77.953232,18.023308],[77.952557,18.023075],[77.951545,18.023054],[77.94952,18.023448],[77.94732,18.024247],[77.943447,18.025425],[77.942097,18.025756],[77.94041,18.025956],[77.938723,18.025861],[77.937036,18.025407],[77.935012,18.024557],[77.933863,18.023909],[77.931975,18.022469],[77.929613,18.021125],[77.926576,18.019725],[77.924552,18.01892],[77.92354,18.018646],[77.92219,18.018408],[77.919491,18.018241],[77.918478,18.018072],[77.914429,18.016571],[77.91308,18.016215],[77.912068,18.01614],[77.909031,18.016202],[77.908019,18.01606],[77.907006,18.015758],[77.904982,18.014698],[77.903142,18.01345],[77.902455,18.012775],[77.90127,18.011307],[77.900101,18.010076],[77.898909,18.009064],[77.896547,18.00742],[77.89486,18.005797],[77.890951,18.002315],[77.887099,17.999865],[77.88413,17.998604],[77.881701,17.997359],[77.880688,17.996663],[77.879895,17.995904],[77.87855,17.994217],[77.876495,17.991181],[77.87529,17.990034],[77.87394,17.989168],[77.870228,17.987325],[77.869216,17.986747],[77.866002,17.984432],[77.86348,17.982494],[77.85902,17.979708],[77.858082,17.979003],[77.857744,17.97863],[77.857407,17.978078],[77.857076,17.977009],[77.85705,17.976334],[77.857575,17.972623],[77.85761,17.971948],[77.857453,17.970598],[77.857144,17.969586],[77.855045,17.965979],[77.854431,17.964525],[77.853716,17.963175],[77.852759,17.960813],[77.852219,17.959801],[77.85153,17.958789],[77.850953,17.958114],[77.849885,17.957102],[77.849043,17.956427],[77.84661,17.9551],[77.842223,17.953003],[77.840874,17.952105],[77.837929,17.949679],[77.836668,17.949004],[77.835475,17.948528],[77.833113,17.947863],[77.830076,17.947393],[77.828389,17.947333],[77.822991,17.947415],[77.820292,17.94726],[77.81658,17.946607],[77.813206,17.945826],[77.811856,17.945368],[77.810541,17.944618],[77.809231,17.943605],[77.807807,17.942128],[77.807178,17.941581],[77.806139,17.940906],[77.805108,17.940383],[77.803758,17.93983],[77.802746,17.939517],[77.79701,17.938461],[77.794986,17.937667],[77.793636,17.936895],[77.792286,17.935802],[77.790396,17.934495],[77.785201,17.931223],[77.784388,17.930784],[77.782501,17.929983],[77.781623,17.929434],[77.781063,17.928759],[77.780084,17.926735],[77.778963,17.92471],[77.777778,17.923012],[77.777103,17.922326],[77.776091,17.921599],[77.775078,17.921095],[77.773729,17.920657],[77.772379,17.920514],[77.771029,17.920639],[77.770017,17.921062],[77.769005,17.921782],[77.768489,17.922348],[77.768056,17.923023],[77.766836,17.925723],[77.765968,17.927183],[77.76532,17.928084],[77.762272,17.931121],[77.760372,17.933483],[77.75943,17.934495],[77.758318,17.935508],[77.757533,17.935955],[77.756521,17.936283],[77.755388,17.93652],[77.751122,17.937084],[77.748085,17.937913],[77.746127,17.938882],[77.742687,17.941039],[77.741,17.942008],[77.73965,17.942663],[77.7383,17.943148],[77.737288,17.943283],[77.736276,17.943211],[77.734589,17.94272],[77.731215,17.94141],[77.729528,17.941073],[77.728178,17.941038],[77.727166,17.941264],[77.725816,17.941848],[77.722891,17.94428],[77.721767,17.944945],[77.720418,17.945562],[77.719405,17.945874],[77.71873,17.945945],[77.717718,17.945852],[77.716926,17.94563],[77.715694,17.945042],[77.71518,17.944618],[77.714904,17.94428],[77.712875,17.940569],[77.712655,17.939894],[77.712539,17.939219],[77.712521,17.938207],[77.712837,17.935845],[77.71299,17.933483],[77.713214,17.932133],[77.71365,17.930784],[77.71453,17.929097],[77.715226,17.92741],[77.715511,17.926397],[77.715604,17.925385],[77.715532,17.92471],[77.715264,17.923698],[77.714495,17.922011],[77.714197,17.920999],[77.71402,17.919649],[77.714088,17.917287],[77.713931,17.9156],[77.713515,17.913913],[77.712266,17.909864],[77.71131,17.904466],[77.711002,17.902104],[77.711083,17.901091],[77.711346,17.899911]]}}]}