{"type":"FeatureCollection","features":[{"type":"Feature","properties":{"level":-2450},"geometry":{"type":"Polygon","coordinates":[[[77.742518,18.680007],[77.738806,18.678995],[77.737794,18.677983],[77.736445,18.677645],[77.735432,18.675958],[77.73307,18.673596],[77.732396,18.673596],[77.730034,18.670897],[77.724973,18.668873],[77.724635,18.668198],[77.721598,18.666848],[77.718562,18.664486],[77.71755,18.664486],[77.715525,18.663137],[77.711476,18.661787],[77.707765,18.661787],[77.701691,18.664824],[77.693256,18.665499],[77.690219,18.666848],[77.679759,18.664824],[77.676385,18.664824],[77.674023,18.663474],[77.671324,18.663474],[77.670649,18.664149],[77.669637,18.664149],[77.666938,18.662799],[77.664576,18.662462],[77.662889,18.662462],[77.660864,18.664149],[77.656815,18.662799],[77.650742,18.663474],[77.648717,18.664486],[77.646693,18.664486],[77.644331,18.665499],[77.633534,18.665499],[77.63016,18.666511],[77.628473,18.668535],[77.626448,18.668535],[77.625099,18.669548],[77.62105,18.67056],[77.619025,18.673934],[77.61835,18.673934],[77.617001,18.675284],[77.615314,18.675284],[77.613964,18.674609],[77.613627,18.676971],[77.612614,18.677983],[77.611265,18.67832],[77.60924,18.675621],[77.608228,18.675621],[77.606204,18.674271],[77.606541,18.672922],[77.608228,18.671572],[77.608228,18.670222],[77.607216,18.669548],[77.603167,18.669548],[77.60148,18.668535],[77.599793,18.668535],[77.593044,18.670222],[77.591357,18.666848],[77.589333,18.665499],[77.587983,18.662124],[77.585621,18.660775],[77.585621,18.659425],[77.583597,18.656388],[77.58326,18.654364],[77.58191,18.654027],[77.58056,18.652677],[77.573812,18.654701],[77.572125,18.654701],[77.569763,18.656051],[77.567739,18.656051],[77.56369,18.654701],[77.561328,18.654701],[77.559303,18.652677],[77.559641,18.650652],[77.558628,18.648628],[77.554579,18.646604],[77.552218,18.643229],[77.549518,18.642892],[77.548169,18.640868],[77.547831,18.63918],[77.54412,18.639518],[77.543445,18.64053],[77.543445,18.642217],[77.542433,18.642892],[77.539396,18.64188],[77.537371,18.640193],[77.535684,18.641205],[77.535347,18.642892],[77.532648,18.642892],[77.531973,18.642217],[77.530961,18.638168],[77.528599,18.638168],[77.527249,18.637493],[77.525225,18.635132],[77.525562,18.633444],[77.526574,18.632432],[77.530286,18.631083],[77.530623,18.629733],[77.529611,18.628383],[77.525562,18.628721],[77.524212,18.630745],[77.5232,18.631083],[77.521176,18.631083],[77.516114,18.629733],[77.512066,18.63007],[77.511053,18.628721],[77.510041,18.628383],[77.503293,18.628721],[77.504305,18.63007],[77.504305,18.63142],[77.506667,18.633782],[77.506667,18.636481],[77.509029,18.637493],[77.511053,18.637493],[77.512066,18.638506],[77.511391,18.640868],[77.510041,18.64188],[77.508017,18.64188],[77.507004,18.643904],[77.50363,18.643229],[77.502955,18.641542],[77.500931,18.64188],[77.500256,18.640868],[77.498232,18.640193],[77.496882,18.637493],[77.495195,18.636481],[77.493845,18.637156],[77.493845,18.64053],[77.49317,18.641205],[77.493845,18.643904],[77.490134,18.643904],[77.490134,18.642217],[77.491146,18.641542],[77.491146,18.640193],[77.489796,18.63918],[77.488109,18.63918],[77.487097,18.638506],[77.487097,18.636144],[77.489796,18.635806],[77.490471,18.635132],[77.490471,18.633107],[77.488784,18.629395],[77.487772,18.628383],[77.487434,18.626696],[77.486085,18.625347],[77.484398,18.624672],[77.481361,18.625009],[77.478999,18.627708],[77.476975,18.627034],[77.475962,18.629733],[77.473938,18.629733],[77.473263,18.629058],[77.471576,18.628721],[77.472251,18.628046],[77.472251,18.627034],[77.471576,18.626359],[77.470226,18.626359],[77.469889,18.627371],[77.470901,18.628383],[77.470226,18.629058],[77.470226,18.630408],[77.470901,18.63142],[77.470564,18.634119],[77.466515,18.634119],[77.465165,18.636144],[77.463141,18.636481],[77.45673,18.635132],[77.456393,18.636481],[77.451331,18.638506],[77.449982,18.638506],[77.448632,18.637493],[77.443233,18.636144],[77.43716,18.635469],[77.435136,18.634119],[77.432436,18.634119],[77.430749,18.633444],[77.430749,18.63277],[77.4294,18.631757],[77.4294,18.631083],[77.427713,18.629058],[77.424338,18.628046],[77.422989,18.626696],[77.422651,18.624672],[77.423326,18.622647],[77.422314,18.621298],[77.421977,18.618936],[77.420627,18.617586],[77.415903,18.616574],[77.412866,18.618261],[77.410842,18.617586],[77.410842,18.616236],[77.411854,18.615224],[77.414891,18.613875],[77.416578,18.612187],[77.416578,18.611513],[77.419615,18.608813],[77.419615,18.606789],[77.418265,18.604764],[77.41759,18.602065],[77.416241,18.599366],[77.414891,18.598016],[77.414891,18.595992],[77.41759,18.59363],[77.418602,18.589581],[77.419952,18.588231],[77.420627,18.588231],[77.422989,18.585195],[77.422989,18.582833],[77.421639,18.581483],[77.418265,18.580133],[77.416915,18.578784],[77.415903,18.576422],[77.415903,18.574397],[77.41759,18.573048],[77.419615,18.572373],[77.422989,18.57271],[77.425013,18.574735],[77.426025,18.576759],[77.425351,18.579459],[77.424676,18.580133],[77.424676,18.581146],[77.425688,18.582158],[77.43716,18.582158],[77.43716,18.580471],[77.434798,18.580133],[77.432436,18.578109],[77.432436,18.577434],[77.435136,18.577771],[77.436823,18.579121],[77.43716,18.580133],[77.439185,18.580471],[77.439859,18.58182],[77.441884,18.58182],[77.443233,18.581146],[77.444583,18.579796],[77.444583,18.578784],[77.443908,18.576759],[77.442896,18.576084],[77.442896,18.575072],[77.441209,18.573385],[77.438847,18.572035],[77.432774,18.571361],[77.431761,18.570011],[77.430412,18.569674],[77.427713,18.566637],[77.427038,18.566637],[77.424338,18.5636],[77.424338,18.56225],[77.428725,18.562925],[77.431087,18.561576],[77.432774,18.561576],[77.433111,18.560563],[77.430749,18.559214],[77.429737,18.557864],[77.429062,18.557864],[77.427713,18.556177],[77.427038,18.556177],[77.423664,18.552803],[77.422651,18.550441],[77.427375,18.549091],[77.429737,18.547404],[77.432774,18.547067],[77.432774,18.546392],[77.42805,18.545717],[77.424676,18.543693],[77.420627,18.542343],[77.416241,18.542681],[77.414553,18.541331],[77.409155,18.539981],[77.406793,18.537282],[77.406456,18.533908],[77.406456,18.532221],[77.40848,18.531209],[77.409155,18.528172],[77.407805,18.527497],[77.406118,18.527497],[77.404769,18.529184],[77.404094,18.529184],[77.401732,18.52716],[77.402069,18.52581],[77.406456,18.526147],[77.407805,18.525473],[77.409155,18.523786],[77.410167,18.518387],[77.408817,18.51805],[77.408143,18.514675],[77.406456,18.513663],[77.407805,18.512313],[77.410167,18.511639],[77.411179,18.510626],[77.409492,18.509277],[77.410167,18.507927],[77.411179,18.50759],[77.411517,18.506577],[77.412192,18.506577],[77.412529,18.505903],[77.416578,18.504553],[77.41759,18.503203],[77.420627,18.501516],[77.420964,18.500504],[77.41894,18.498817],[77.416578,18.498817],[77.413541,18.500167],[77.410505,18.500167],[77.410167,18.497805],[77.409155,18.49578],[77.410167,18.493418],[77.412529,18.491057],[77.412529,18.490044],[77.413204,18.489369],[77.413204,18.487008],[77.411854,18.484983],[77.411179,18.484983],[77.409155,18.483296],[77.407468,18.483971],[77.405106,18.483971],[77.404769,18.483296],[77.403419,18.482959],[77.402407,18.484983],[77.401394,18.485658],[77.399707,18.485658],[77.398695,18.484646],[77.398358,18.483296],[77.396333,18.483296],[77.393971,18.485658],[77.391947,18.485995],[77.390935,18.484646],[77.389248,18.484308],[77.38756,18.482621],[77.386886,18.482959],[77.386548,18.485658],[77.382837,18.487682],[77.380812,18.488357],[77.37845,18.488357],[77.375076,18.487008],[77.372714,18.483633],[77.372714,18.480934],[77.376088,18.477897],[77.380812,18.47621],[77.382162,18.47621],[77.382837,18.477223],[77.385873,18.478572],[77.385873,18.476885],[77.384861,18.475536],[77.384861,18.474186],[77.385536,18.473511],[77.385199,18.470137],[77.383174,18.4698],[77.382499,18.469125],[77.380812,18.469125],[77.3798,18.467775],[77.378113,18.467775],[77.375414,18.469125],[77.37069,18.46845],[77.368665,18.465751],[77.366304,18.465413],[77.364279,18.463726],[77.363942,18.460352],[77.365291,18.45799],[77.365291,18.454279],[77.366304,18.451579],[77.366304,18.449217],[77.364954,18.448543],[77.364616,18.446856],[77.361917,18.44753],[77.36023,18.449892],[77.35888,18.449892],[77.356519,18.449217],[77.355506,18.447868],[77.354157,18.447193],[77.35112,18.446518],[77.349433,18.442469],[77.348421,18.434371],[77.345721,18.429648],[77.345721,18.428635],[77.346734,18.427623],[77.350108,18.425599],[77.350783,18.423912],[77.351457,18.423574],[77.352132,18.421212],[77.350783,18.415814],[77.348083,18.413452],[77.346396,18.40974],[77.346396,18.406704],[77.347071,18.404679],[77.349096,18.402317],[77.349096,18.401642],[77.354494,18.396581],[77.355169,18.394894],[77.357531,18.39287],[77.35888,18.388821],[77.359893,18.387471],[77.360568,18.385109],[77.360568,18.375662],[77.359893,18.373637],[77.36023,18.369251],[77.362592,18.366889],[77.363604,18.36419],[77.365966,18.362503],[77.365966,18.361828],[77.366978,18.361153],[77.367316,18.359803],[77.369003,18.357779],[77.371027,18.356767],[77.374739,18.356767],[77.376426,18.355079],[77.376426,18.350018],[77.378788,18.345969],[77.379125,18.342595],[77.380137,18.340233],[77.380812,18.339896],[77.382162,18.335172],[77.381487,18.328424],[77.383174,18.315602],[77.384186,18.31459],[77.384524,18.31324],[77.386211,18.311891],[77.387223,18.308517],[77.389585,18.30548],[77.389585,18.301094],[77.385536,18.297045],[77.383512,18.29367],[77.382837,18.290634],[77.381824,18.289284],[77.381824,18.287597],[77.380137,18.28456],[77.3798,18.282536],[77.377776,18.279162],[77.377776,18.278149],[77.376426,18.276125],[77.375751,18.273426],[77.375751,18.270726],[77.377776,18.268027],[77.377776,18.266003],[77.376763,18.264653],[77.376763,18.25858],[77.377776,18.255205],[77.37845,18.254531],[77.379463,18.24812],[77.382837,18.242721],[77.382837,18.241709],[77.384186,18.240022],[77.384524,18.237997],[77.385199,18.237323],[77.385536,18.235298],[77.386548,18.233949],[77.38756,18.227875],[77.38891,18.224164],[77.38891,18.21944],[77.39026,18.217753],[77.391272,18.211342],[77.392622,18.207293],[77.394646,18.203919],[77.395321,18.20122],[77.39802,18.196496],[77.403081,18.19076],[77.405781,18.182999],[77.40848,18.179288],[77.40848,18.178613],[77.409155,18.178276],[77.409155,18.177601],[77.411179,18.175914],[77.412529,18.175576],[77.414553,18.173552],[77.414553,18.172877],[77.420289,18.167478],[77.421977,18.162417],[77.423326,18.16073],[77.423664,18.15938],[77.435136,18.148583],[77.436148,18.146559],[77.439185,18.143522],[77.441546,18.138123],[77.444246,18.135424],[77.447282,18.134075],[77.451669,18.130363],[77.452344,18.130363],[77.458754,18.123615],[77.460779,18.12294],[77.462803,18.121253],[77.463141,18.116867],[77.46449,18.115179],[77.46584,18.114505],[77.47495,18.111468],[77.480349,18.110456],[77.482373,18.109443],[77.482711,18.108769],[77.48406,18.108431],[77.488109,18.104382],[77.493508,18.101346],[77.49452,18.101346],[77.500594,18.097971],[77.503968,18.097297],[77.510041,18.093585],[77.521851,18.089874],[77.529274,18.08515],[77.53501,18.0838],[77.537709,18.082113],[77.543782,18.080089],[77.546144,18.078739],[77.549181,18.078064],[77.55188,18.076714],[77.553905,18.07469],[77.558966,18.071653],[77.569088,18.069629],[77.571787,18.068617],[77.573137,18.067267],[77.575836,18.065917],[77.583597,18.06423],[77.584609,18.063555],[77.590008,18.062543],[77.599118,18.062206],[77.602829,18.061194],[77.608565,18.061531],[77.615988,18.059506],[77.620712,18.059169],[77.623749,18.057819],[77.629822,18.052421],[77.632859,18.051409],[77.634884,18.050059],[77.635896,18.050059],[77.638595,18.048372],[77.646018,18.04601],[77.656141,18.044998],[77.665925,18.042298],[77.682459,18.041961],[77.686845,18.042973],[77.697305,18.043648],[77.708439,18.04601],[77.713501,18.047697],[77.717887,18.048034],[77.72396,18.047022],[77.729359,18.047022],[77.736107,18.048372],[77.740494,18.049722],[77.74488,18.052083],[77.747242,18.054108],[77.750278,18.05512],[77.752978,18.056807],[77.75399,18.056807],[77.757364,18.058494],[77.761076,18.059169],[77.766137,18.062206],[77.771873,18.063893],[77.777271,18.06693],[77.785032,18.068617],[77.787394,18.069629],[77.796167,18.070978],[77.80359,18.070978],[77.806289,18.070304],[77.808651,18.069291],[77.813037,18.06558],[77.816411,18.064568],[77.818773,18.064568],[77.823834,18.065917],[77.827546,18.065917],[77.829908,18.065242],[77.831932,18.063555],[77.832607,18.063555],[77.833282,18.062543],[77.833957,18.062543],[77.835981,18.059844],[77.839018,18.058157],[77.84138,18.055795],[77.844754,18.054445],[77.850152,18.054108],[77.855551,18.055458],[77.85825,18.055458],[77.863649,18.054108],[77.867698,18.055795],[77.875796,18.056807],[77.879845,18.059844],[77.88052,18.059844],[77.881194,18.060856],[77.881869,18.060856],[77.887605,18.067604],[77.887943,18.068954],[77.889967,18.071316],[77.891992,18.075365],[77.893679,18.081101],[77.895028,18.082113],[77.895366,18.083125],[77.896041,18.083125],[77.898065,18.084812],[77.903464,18.086499],[77.905151,18.086499],[77.910212,18.088524],[77.912574,18.090548],[77.914261,18.091223],[77.914936,18.092235],[77.91831,18.093922],[77.923708,18.099321],[77.924383,18.099321],[77.925733,18.100671],[77.932481,18.103033],[77.934168,18.10472],[77.93518,18.107756],[77.939229,18.111468],[77.943278,18.113155],[77.944628,18.114505],[77.94564,18.116867],[77.947665,18.118891],[77.956437,18.122603],[77.958799,18.124964],[77.959137,18.126314],[77.961836,18.129013],[77.961836,18.129688],[77.964198,18.13205],[77.966897,18.1334],[77.968247,18.135087],[77.968922,18.135087],[77.969259,18.136099],[77.970271,18.136774],[77.970609,18.138123],[77.971621,18.138798],[77.971621,18.139473],[77.97432,18.141835],[77.974995,18.141835],[77.978369,18.145209],[77.979719,18.147908],[77.982081,18.15027],[77.985792,18.152295],[77.988154,18.154657],[77.990853,18.162755],[77.997602,18.169165],[77.999963,18.170515],[77.999963,18.416488],[77.997602,18.416488],[77.996927,18.417838],[77.997602,18.419188],[77.998951,18.419188],[77.999963,18.418176],[77.999963,18.504216],[77.991528,18.504216],[77.983093,18.507927],[77.982755,18.508602],[77.981406,18.508939],[77.979719,18.510626],[77.979044,18.510626],[77.978369,18.511976],[77.97432,18.516025],[77.974995,18.521086],[77.973308,18.523111],[77.972296,18.525473],[77.971621,18.52581],[77.970271,18.528847],[77.967572,18.531209],[77.960486,18.531209],[77.958124,18.532896],[77.954075,18.540656],[77.953401,18.54538],[77.952726,18.546055],[77.951714,18.549766],[77.949689,18.55314],[77.947327,18.555502],[77.947327,18.556177],[77.945978,18.556852],[77.944965,18.558876],[77.94429,18.559214],[77.943616,18.561238],[77.943616,18.5636],[77.942603,18.565287],[77.938217,18.568999],[77.934843,18.570686],[77.928432,18.57271],[77.924383,18.575747],[77.917297,18.578784],[77.914936,18.581146],[77.914598,18.582495],[77.913249,18.583845],[77.912911,18.585532],[77.910549,18.589918],[77.906163,18.594979],[77.903464,18.596329],[77.901439,18.598691],[77.898065,18.600378],[77.897053,18.600378],[77.893004,18.60274],[77.891317,18.607126],[77.887943,18.608813],[77.885918,18.609151],[77.883894,18.610838],[77.883219,18.610838],[77.883219,18.611513],[77.88052,18.614212],[77.879507,18.614549],[77.878833,18.616236],[77.876133,18.618936],[77.872084,18.620623],[77.872084,18.621298],[77.869385,18.623997],[77.866348,18.625009],[77.865336,18.626021],[77.861624,18.627708],[77.860275,18.627708],[77.857913,18.628721],[77.851502,18.629395],[77.84914,18.630745],[77.847116,18.631083],[77.846441,18.632095],[77.843067,18.633782],[77.841717,18.635132],[77.84138,18.636481],[77.840368,18.637156],[77.837331,18.637156],[77.834294,18.638506],[77.83227,18.638506],[77.831257,18.637156],[77.829908,18.636481],[77.827883,18.636481],[77.825521,18.635132],[77.822147,18.634457],[77.820798,18.634794],[77.819111,18.636819],[77.815062,18.63918],[77.801903,18.64188],[77.799541,18.643904],[77.797516,18.64964],[77.795829,18.651327],[77.793467,18.65234],[77.79178,18.655376],[77.789081,18.658076],[77.786044,18.659088],[77.783682,18.661112],[77.781995,18.664824],[77.78132,18.668873],[77.779296,18.670897],[77.777946,18.671235],[77.777609,18.671909],[77.775584,18.672922],[77.772885,18.673596],[77.767824,18.676633],[77.762763,18.677645],[77.757027,18.67967],[77.742518,18.680007]],[[77.611265,18.674609],[77.612614,18.674609],[77.612614,18.673934],[77.611602,18.673934],[77.611265,18.674609]],[[77.553905,18.640193],[77.554917,18.640193],[77.554579,18.638506],[77.55188,18.636144],[77.550531,18.636144],[77.549856,18.637831],[77.552218,18.638506],[77.553905,18.640193]],[[77.502618,18.637156],[77.502955,18.635806],[77.501268,18.635469],[77.501268,18.636481],[77.502618,18.637156]],[[77.540071,18.63277],[77.547156,18.632432],[77.547494,18.63142],[77.546144,18.630408],[77.545807,18.629058],[77.544457,18.628046],[77.543782,18.626696],[77.542095,18.626021],[77.540408,18.626359],[77.539733,18.627371],[77.539733,18.629733],[77.539059,18.630408],[77.539059,18.631757],[77.540071,18.63277]],[[77.520163,18.621635],[77.521176,18.621635],[77.521851,18.62096],[77.522188,18.618261],[77.5232,18.617249],[77.524212,18.617249],[77.52455,18.615899],[77.522188,18.614887],[77.521851,18.613875],[77.521176,18.613875],[77.520838,18.6132],[77.519151,18.612862],[77.518476,18.6132],[77.518476,18.616236],[77.519489,18.618598],[77.519489,18.62096],[77.520163,18.621635]],[[77.451331,18.6132],[77.452006,18.6132],[77.452006,18.61185],[77.450657,18.610163],[77.450319,18.611175],[77.451331,18.6132]],[[77.431087,18.59228],[77.432436,18.59228],[77.433111,18.591605],[77.433111,18.588906],[77.431424,18.588906],[77.430749,18.589581],[77.430412,18.591605],[77.431087,18.59228]],[[77.469889,18.589581],[77.470564,18.589581],[77.470564,18.588906],[77.469889,18.588906],[77.469889,18.589581]],[[77.464153,18.586207],[77.46719,18.585532],[77.467527,18.583845],[77.464828,18.583507],[77.464153,18.586207]],[[77.409492,18.528172],[77.411517,18.527834],[77.411854,18.526485],[77.410167,18.526485],[77.409492,18.52716],[77.409492,18.528172]],[[77.391272,18.473511],[77.392622,18.473174],[77.393971,18.470812],[77.393634,18.467438],[77.392284,18.468113],[77.391609,18.470474],[77.390597,18.471487],[77.390597,18.472836],[77.391272,18.473511]],[[77.410505,18.303455],[77.413879,18.303455],[77.415228,18.302443],[77.414891,18.299744],[77.411517,18.297382],[77.409155,18.297719],[77.407805,18.299744],[77.40848,18.302106],[77.410505,18.303455]],[[77.412192,18.293333],[77.414216,18.292996],[77.415903,18.291646],[77.415903,18.288272],[77.415228,18.287934],[77.415228,18.28726],[77.412866,18.286247],[77.40848,18.286922],[77.40848,18.288947],[77.409155,18.289284],[77.410505,18.291983],[77.412192,18.293333]],[[77.582585,18.159718],[77.585959,18.159718],[77.588658,18.157693],[77.588996,18.151957],[77.587308,18.147571],[77.584609,18.145209],[77.581235,18.144197],[77.578536,18.145547],[77.576849,18.147234],[77.575162,18.150608],[77.575162,18.153644],[77.576174,18.156006],[77.577523,18.157356],[77.582585,18.159718]],[[77.529611,18.155669],[77.53231,18.155331],[77.53366,18.15297],[77.533323,18.149258],[77.531298,18.147908],[77.528599,18.148246],[77.528261,18.148921],[77.527587,18.148921],[77.526574,18.150945],[77.527249,18.153644],[77.529611,18.155669]]]}}]}