{"type":"FeatureCollection","features":[{"type":"Feature","properties":{"level":-2350},"geometry":{"type":"MultiPolygon","coordinates":[[[[77.425013,18.653689],[77.426025,18.654364],[77.427038,18.654364],[77.425688,18.653352],[77.425013,18.653689]]],[[[77.425013,18.653352],[77.425013,18.651327],[77.427038,18.651327],[77.427713,18.652002],[77.427713,18.653689],[77.428725,18.653689],[77.4294,18.653014],[77.433449,18.653689],[77.433786,18.654364],[77.436485,18.655714],[77.437497,18.657063],[77.440197,18.658413],[77.442221,18.662799],[77.442896,18.662799],[77.444583,18.665161],[77.44762,18.667523],[77.44762,18.668198],[77.449644,18.669548],[77.449644,18.670222],[77.451331,18.671572],[77.451669,18.672922],[77.453018,18.674271],[77.455043,18.675284],[77.456393,18.678658],[77.458417,18.680345],[77.458417,18.68102],[77.459767,18.681694],[77.459767,18.682369],[77.462803,18.685406],[77.46449,18.686081],[77.466852,18.688105],[77.46719,18.690467],[77.466178,18.691817],[77.46584,18.694179],[77.468539,18.697553],[77.469889,18.698228],[77.472251,18.698228],[77.475288,18.697553],[77.476637,18.696541],[77.478999,18.695866],[77.483723,18.696203],[77.485073,18.697553],[77.488784,18.698902],[77.490471,18.700927],[77.492833,18.701602],[77.49452,18.703289],[77.497894,18.704638],[77.500931,18.707],[77.502618,18.707338],[77.504305,18.709362],[77.505992,18.710037],[77.508017,18.712061],[77.511391,18.713074],[77.512066,18.713749],[77.514427,18.713749],[77.51409,18.71611],[77.514765,18.716448],[77.514765,18.717123],[77.51544,18.717123],[77.517127,18.71881],[77.521513,18.720159],[77.522863,18.721172],[77.524212,18.721172],[77.529948,18.723196],[77.532985,18.723196],[77.537709,18.722184],[77.540071,18.720834],[77.54142,18.71881],[77.541758,18.716785],[77.540408,18.714761],[77.540408,18.713411],[77.538046,18.711387],[77.537709,18.7097],[77.538384,18.709362],[77.538384,18.707],[77.540746,18.706663],[77.541083,18.705651],[77.540746,18.700252],[77.542095,18.699577],[77.543782,18.697553],[77.546819,18.696878],[77.549181,18.694853],[77.550868,18.694853],[77.552892,18.696541],[77.555592,18.696878],[77.557954,18.69789],[77.557616,18.700927],[77.555929,18.702277],[77.555592,18.703626],[77.555254,18.707],[77.555929,18.707675],[77.557279,18.708013],[77.559303,18.710037],[77.56234,18.710712],[77.563352,18.712061],[77.565377,18.713074],[77.567739,18.715773],[77.572125,18.717123],[77.575499,18.719147],[77.578536,18.720159],[77.580223,18.721509],[77.582585,18.722184],[77.586296,18.722184],[77.591357,18.720159],[77.591695,18.719485],[77.593044,18.719147],[77.593382,18.718472],[77.595406,18.71746],[77.601817,18.71611],[77.602829,18.715436],[77.602829,18.714423],[77.60148,18.713411],[77.60148,18.712399],[77.604179,18.710712],[77.606204,18.710712],[77.607891,18.712736],[77.610252,18.714086],[77.610927,18.71611],[77.613627,18.718472],[77.614639,18.720159],[77.615988,18.720834],[77.623074,18.722521],[77.626111,18.723871],[77.633534,18.724546],[77.635896,18.725895],[77.638258,18.728595],[77.641294,18.729944],[77.645343,18.729944],[77.649055,18.728932],[77.651417,18.729269],[77.653779,18.730619],[77.65749,18.734668],[77.659852,18.73568],[77.662889,18.73568],[77.668625,18.73703],[77.672674,18.73703],[77.678072,18.735005],[77.678747,18.733993],[77.682459,18.731969],[77.68752,18.731969],[77.692244,18.729607],[77.698317,18.728595],[77.701691,18.725558],[77.701691,18.724883],[77.704728,18.721509],[77.704728,18.720834],[77.708102,18.717797],[77.714175,18.718472],[77.720249,18.715436],[77.72396,18.714761],[77.729359,18.712399],[77.731383,18.712399],[77.73442,18.713411],[77.738806,18.713411],[77.741168,18.712399],[77.747917,18.711387],[77.752978,18.709362],[77.754665,18.709362],[77.760401,18.705651],[77.767824,18.704301],[77.77356,18.701264],[77.773897,18.700589],[77.778284,18.698902],[77.780308,18.697215],[77.78402,18.695866],[77.788743,18.695866],[77.795492,18.697553],[77.800553,18.697215],[77.808651,18.693841],[77.814049,18.689792],[77.818773,18.68878],[77.823497,18.686418],[77.827883,18.685406],[77.836993,18.684731],[77.843067,18.683044],[77.846441,18.681357],[77.849815,18.677308],[77.852514,18.676296],[77.852852,18.675621],[77.856901,18.673596],[77.857576,18.672584],[77.859937,18.671572],[77.871072,18.671572],[77.873096,18.672247],[77.883556,18.672247],[77.885243,18.671572],[77.886256,18.670222],[77.887605,18.669885],[77.887943,18.66921],[77.889967,18.668535],[77.890979,18.667186],[77.891654,18.667186],[77.900427,18.659088],[77.904813,18.657401],[77.908525,18.656726],[77.913249,18.654364],[77.913923,18.653014],[77.914261,18.648628],[77.914936,18.646604],[77.91831,18.642217],[77.919659,18.635469],[77.921684,18.633444],[77.922696,18.630745],[77.924383,18.629058],[77.929107,18.627708],[77.929444,18.627034],[77.930794,18.626696],[77.933493,18.623997],[77.934505,18.621972],[77.938554,18.618936],[77.941254,18.617923],[77.941591,18.617249],[77.94564,18.615224],[77.951039,18.614212],[77.952388,18.612862],[77.953063,18.610838],[77.955762,18.608476],[77.9561,18.607126],[77.956775,18.606789],[77.95745,18.603077],[77.957112,18.598691],[77.958799,18.596329],[77.960149,18.591268],[77.962173,18.589243],[77.967909,18.585869],[77.973645,18.585869],[77.976345,18.584857],[77.977694,18.58317],[77.978369,18.580133],[77.979381,18.578784],[77.982081,18.578109],[77.98613,18.575747],[77.992878,18.574397],[77.996589,18.572373],[77.998276,18.570686],[77.998951,18.568324],[77.999963,18.567649],[77.999963,18.143859],[77.998276,18.142847],[77.988491,18.14251],[77.987142,18.141835],[77.985117,18.139473],[77.982081,18.138123],[77.980731,18.138123],[77.978369,18.136774],[77.97567,18.1334],[77.973308,18.128676],[77.969934,18.125639],[77.969934,18.124964],[77.968247,18.123615],[77.966897,18.120915],[77.966222,18.120578],[77.966222,18.119903],[77.962511,18.115854],[77.961836,18.115854],[77.960149,18.114167],[77.956775,18.112143],[77.949689,18.109781],[77.945303,18.105732],[77.943278,18.10472],[77.942266,18.10337],[77.941591,18.10337],[77.938892,18.100333],[77.938217,18.100333],[77.936193,18.098309],[77.934505,18.097634],[77.931131,18.093922],[77.929107,18.09291],[77.925395,18.089536],[77.923033,18.088524],[77.918647,18.084475],[77.917635,18.081438],[77.91831,18.078064],[77.925058,18.071653],[77.928095,18.069966],[77.931131,18.065917],[77.932144,18.059169],[77.932144,18.051071],[77.928769,18.041286],[77.925058,18.037912],[77.922696,18.033526],[77.919659,18.030826],[77.912236,18.027115],[77.911561,18.02644],[77.911561,18.025428],[77.917635,18.023741],[77.922696,18.023403],[77.929782,18.025765],[77.930119,18.02644],[77.932818,18.027452],[77.934505,18.028802],[77.939904,18.030489],[77.942941,18.032176],[77.945978,18.032176],[77.950026,18.029814],[77.952726,18.029814],[77.960149,18.033863],[77.965547,18.034201],[77.968922,18.032176],[77.973983,18.027115],[77.980056,18.028127],[77.984105,18.025428],[77.986804,18.02509],[77.989166,18.025428],[77.992878,18.027115],[77.99524,18.029477],[77.995915,18.029477],[77.997264,18.031501],[77.999963,18.032851],[77.999963,17.978528],[77.999289,17.978528],[77.998276,17.976503],[77.996927,17.966718],[77.996252,17.965368],[77.996252,17.961657],[77.998276,17.958283],[77.999963,17.957271],[77.999963,17.899911],[77.703378,17.899911],[77.703716,17.902272],[77.705403,17.905309],[77.706752,17.910033],[77.708102,17.912057],[77.708777,17.918806],[77.709789,17.92218],[77.709789,17.926904],[77.709114,17.928928],[77.705065,17.933314],[77.70439,17.934664],[77.70439,17.936688],[77.70709,17.945461],[77.710126,17.951197],[77.711814,17.952547],[77.715188,17.953559],[77.728009,17.952884],[77.729359,17.953896],[77.731721,17.954571],[77.735432,17.954571],[77.738806,17.952884],[77.741506,17.950185],[77.742181,17.950185],[77.74488,17.947486],[77.74488,17.946811],[77.747917,17.944112],[77.747917,17.943437],[77.751291,17.941075],[77.75399,17.9404],[77.762425,17.940737],[77.768161,17.937701],[77.769511,17.937701],[77.779633,17.934327],[77.783682,17.934327],[77.785707,17.935001],[77.788743,17.937363],[77.790093,17.939725],[77.792455,17.94175],[77.795829,17.943437],[77.799878,17.944112],[77.80359,17.945799],[77.806626,17.949173],[77.807301,17.949173],[77.809326,17.95086],[77.826196,17.951872],[77.832944,17.954234],[77.838343,17.957271],[77.842392,17.960982],[77.844416,17.965368],[77.844754,17.975828],[77.845429,17.976166],[77.846778,17.978865],[77.848465,17.980215],[77.848465,17.980889],[77.849815,17.981902],[77.850827,17.983926],[77.853527,17.986625],[77.855551,17.987638],[77.857913,17.99],[77.863649,17.992024],[77.869048,17.994723],[77.874446,18.000459],[77.885918,18.004171],[77.88963,18.007882],[77.890305,18.007882],[77.895703,18.013618],[77.89874,18.014968],[77.899415,18.01598],[77.902114,18.01733],[77.905488,18.020367],[77.907513,18.024078],[77.907175,18.025765],[77.903126,18.028127],[77.902789,18.028802],[77.900764,18.029477],[77.899415,18.030826],[77.895028,18.032513],[77.894691,18.033188],[77.891992,18.034538],[77.890979,18.035888],[77.882544,18.039599],[77.877483,18.043986],[77.875458,18.043986],[77.874109,18.042973],[77.87006,18.041624],[77.862299,18.040611],[77.856901,18.038587],[77.852852,18.038587],[77.847453,18.041624],[77.843404,18.042298],[77.837668,18.04466],[77.831932,18.045673],[77.829908,18.047022],[77.828558,18.047022],[77.824847,18.048709],[77.819448,18.048709],[77.817423,18.047697],[77.814387,18.048034],[77.8127,18.050734],[77.808651,18.052758],[77.807301,18.055458],[77.806626,18.055795],[77.805951,18.057819],[77.80359,18.060181],[77.796841,18.060181],[77.794817,18.061531],[77.792118,18.061531],[77.789756,18.060856],[77.787056,18.058494],[77.786382,18.058494],[77.785369,18.055795],[77.784695,18.055795],[77.784357,18.05512],[77.777946,18.05377],[77.775922,18.052758],[77.768836,18.052421],[77.766137,18.051746],[77.754665,18.051746],[77.747917,18.049047],[77.746567,18.047697],[77.741168,18.044998],[77.73307,18.043986],[77.72531,18.041286],[77.713501,18.040274],[77.708439,18.038587],[77.698992,18.037237],[77.696967,18.036225],[77.693593,18.03555],[77.690557,18.03555],[77.688532,18.036225],[77.679422,18.03555],[77.667275,18.038249],[77.665251,18.038249],[77.655128,18.040949],[77.645006,18.040611],[77.643319,18.041624],[77.642307,18.041624],[77.640957,18.042973],[77.636908,18.044998],[77.634209,18.045673],[77.632859,18.046685],[77.631847,18.046685],[77.626786,18.049047],[77.624424,18.051071],[77.623074,18.051409],[77.622737,18.052083],[77.620712,18.053096],[77.615314,18.054108],[77.610927,18.056807],[77.608565,18.056807],[77.606878,18.05512],[77.604179,18.054108],[77.60013,18.054445],[77.596081,18.05647],[77.58967,18.057819],[77.58326,18.060181],[77.582585,18.060856],[77.581572,18.060856],[77.580898,18.061531],[77.574149,18.063218],[77.5701,18.065242],[77.564702,18.066255],[77.561665,18.066255],[77.554579,18.067942],[77.554242,18.068617],[77.551543,18.069966],[77.548506,18.07334],[77.545469,18.075027],[77.535684,18.076714],[77.526237,18.079751],[77.523538,18.079751],[77.518814,18.082113],[77.516114,18.08245],[77.510041,18.08515],[77.509029,18.08515],[77.506667,18.086499],[77.50498,18.088186],[77.50363,18.090886],[77.501268,18.09291],[77.499244,18.093585],[77.492158,18.09426],[77.487772,18.096622],[77.48676,18.096622],[77.484735,18.097971],[77.482373,18.098646],[77.482036,18.099321],[77.477312,18.101346],[77.476637,18.102358],[77.474613,18.103033],[77.472926,18.104382],[77.468877,18.105395],[77.466178,18.106744],[77.462466,18.107419],[77.459092,18.109106],[77.45808,18.110456],[77.457405,18.110456],[77.454705,18.112818],[77.451669,18.118554],[77.450657,18.12294],[77.44627,18.127664],[77.445595,18.127664],[77.442559,18.130026],[77.436485,18.131375],[77.432774,18.134749],[77.430074,18.139473],[77.429062,18.140148],[77.429062,18.140823],[77.426363,18.143185],[77.424001,18.147908],[77.420964,18.151283],[77.419952,18.153644],[77.415228,18.159043],[77.412192,18.164442],[77.40983,18.166129],[77.40983,18.166804],[77.406118,18.170178],[77.404431,18.173214],[77.402744,18.174564],[77.395996,18.186711],[77.388235,18.194809],[77.388235,18.195484],[77.386548,18.197508],[77.385536,18.200545],[77.383174,18.203244],[77.381824,18.206281],[77.3798,18.208643],[77.378113,18.213704],[77.378113,18.218428],[77.377101,18.220452],[77.377101,18.226863],[77.375751,18.22855],[77.374401,18.232261],[77.37204,18.234623],[77.370015,18.23901],[77.367991,18.241372],[77.367316,18.244071],[77.365629,18.24677],[77.365629,18.253856],[77.364616,18.259592],[77.364954,18.264653],[77.362929,18.26769],[77.363267,18.270389],[77.361917,18.271064],[77.360905,18.272413],[77.360905,18.277137],[77.362255,18.279162],[77.364279,18.280174],[77.366641,18.282536],[77.37069,18.290634],[77.374739,18.29502],[77.377101,18.301094],[77.377101,18.303118],[77.373727,18.307842],[77.373389,18.310541],[77.37204,18.313578],[77.371702,18.319989],[77.371027,18.321001],[77.370352,18.327074],[77.370352,18.330786],[77.36934,18.334497],[77.369678,18.337197],[77.37069,18.339221],[77.370352,18.340571],[77.367316,18.343607],[77.364279,18.344282],[77.362929,18.345632],[77.362255,18.345632],[77.359893,18.348331],[77.359218,18.348331],[77.359218,18.349006],[77.356519,18.351705],[77.352132,18.353392],[77.349096,18.356767],[77.349096,18.357441],[77.347746,18.358454],[77.347071,18.359803],[77.347408,18.363852],[77.345721,18.368913],[77.345721,18.370938],[77.347408,18.374312],[77.348083,18.377349],[77.349433,18.379373],[77.349433,18.381398],[77.350108,18.38241],[77.349433,18.386459],[77.346734,18.388821],[77.339311,18.390508],[77.337623,18.391857],[77.336274,18.394557],[77.335599,18.398606],[77.334249,18.400293],[77.333912,18.401642],[77.33155,18.404342],[77.330875,18.406366],[77.3302,18.406704],[77.328513,18.410078],[77.327839,18.413452],[77.328513,18.42931],[77.329526,18.434371],[77.3302,18.435046],[77.330875,18.437745],[77.3329,18.440107],[77.333237,18.443144],[77.328176,18.449892],[77.327501,18.451917],[77.327501,18.457315],[77.328851,18.460689],[77.328851,18.471149],[77.331213,18.474186],[77.331887,18.474186],[77.332225,18.475873],[77.331213,18.477223],[77.3302,18.47756],[77.3302,18.478235],[77.327839,18.481272],[77.324127,18.482621],[77.322777,18.483971],[77.321765,18.486333],[77.319066,18.487345],[77.317379,18.489032],[77.314342,18.489707],[77.312655,18.490719],[77.308943,18.491057],[77.305907,18.492069],[77.298484,18.492406],[77.29511,18.493418],[77.29376,18.494431],[77.294097,18.49578],[77.296797,18.496793],[77.301858,18.496793],[77.305907,18.497805],[77.312318,18.498142],[77.314005,18.499829],[77.315692,18.500167],[77.317041,18.501179],[77.317379,18.502529],[77.318391,18.503541],[77.318728,18.505903],[77.320078,18.50759],[77.320415,18.509614],[77.322103,18.511639],[77.32244,18.513663],[77.324464,18.517037],[77.325139,18.521761],[77.3302,18.530196],[77.330538,18.532221],[77.33155,18.533908],[77.332562,18.539306],[77.333237,18.540319],[77.334587,18.547067],[77.338298,18.555165],[77.339985,18.557189],[77.34066,18.559889],[77.341335,18.560226],[77.341335,18.5636],[77.342685,18.566299],[77.344709,18.567986],[77.346734,18.567986],[77.348083,18.567312],[77.349433,18.565625],[77.350445,18.565962],[77.350445,18.566637],[77.351795,18.567649],[77.35247,18.568999],[77.353482,18.57406],[77.355506,18.575747],[77.355844,18.577434],[77.357531,18.578446],[77.358543,18.580808],[77.36023,18.582495],[77.363267,18.583507],[77.364616,18.584857],[77.366641,18.585195],[77.366978,18.587219],[77.369003,18.588569],[77.369003,18.589918],[77.371027,18.591605],[77.371027,18.59228],[77.373727,18.593292],[77.375076,18.595992],[77.375076,18.597341],[77.372714,18.598691],[77.372377,18.600378],[77.375414,18.603752],[77.37845,18.604427],[77.378788,18.607464],[77.383174,18.610838],[77.383849,18.610838],[77.385873,18.614212],[77.387223,18.615224],[77.387898,18.617249],[77.386548,18.619611],[77.386548,18.621635],[77.387898,18.622985],[77.389585,18.623322],[77.389922,18.624672],[77.391272,18.626021],[77.393296,18.626359],[77.395658,18.628383],[77.397683,18.629058],[77.398358,18.631083],[77.400045,18.632432],[77.402407,18.633107],[77.403081,18.634794],[77.410842,18.63918],[77.412192,18.641205],[77.413879,18.642217],[77.414216,18.643904],[77.415566,18.645591],[77.417253,18.645929],[77.41894,18.647278],[77.419615,18.647278],[77.419952,18.645929],[77.421302,18.645929],[77.421977,18.646604],[77.421639,18.647616],[77.420627,18.647953],[77.421302,18.649978],[77.423664,18.652002],[77.424001,18.653014],[77.425013,18.653352]],[[77.688532,18.725558],[77.685495,18.725221],[77.685158,18.724546],[77.685158,18.722521],[77.685833,18.721172],[77.687182,18.719822],[77.689544,18.719485],[77.690219,18.722521],[77.689207,18.724883],[77.688532,18.725558]],[[77.700004,18.712061],[77.696293,18.712061],[77.694943,18.710712],[77.694943,18.709025],[77.694268,18.70835],[77.692918,18.70835],[77.692244,18.709025],[77.689882,18.708687],[77.689207,18.708013],[77.689207,18.705651],[77.687857,18.705651],[77.686845,18.707],[77.685495,18.707],[77.683471,18.705988],[77.682121,18.704301],[77.680434,18.704301],[77.67841,18.703289],[77.67706,18.701602],[77.676385,18.69924],[77.673349,18.696878],[77.672336,18.694179],[77.670987,18.693166],[77.670987,18.692492],[77.668625,18.69013],[77.667275,18.689792],[77.665588,18.688443],[77.665588,18.687768],[77.664238,18.686756],[77.663564,18.685406],[77.662551,18.685068],[77.662551,18.684394],[77.660864,18.683044],[77.660527,18.682032],[77.661202,18.681357],[77.664576,18.681357],[77.665251,18.680345],[77.666938,18.67967],[77.668625,18.677308],[77.671999,18.676296],[77.674698,18.676296],[77.67571,18.676971],[77.68617,18.676971],[77.689207,18.675284],[77.691906,18.675284],[77.694268,18.676633],[77.700679,18.684731],[77.700679,18.685743],[77.703041,18.69013],[77.703041,18.691817],[77.703716,18.693166],[77.703378,18.696203],[77.702029,18.698902],[77.701354,18.69924],[77.700679,18.701264],[77.698992,18.702614],[77.698317,18.704301],[77.698317,18.708013],[77.698992,18.7097],[77.700004,18.710374],[77.700004,18.712061]],[[77.513415,18.710374],[77.510378,18.709362],[77.509704,18.707675],[77.508354,18.706325],[77.50633,18.701939],[77.50498,18.700927],[77.50498,18.699915],[77.505655,18.69924],[77.507679,18.69924],[77.511728,18.703964],[77.513078,18.704301],[77.516789,18.707],[77.516789,18.708013],[77.514765,18.7097],[77.513415,18.710374]],[[77.567401,18.707],[77.565377,18.706663],[77.565714,18.705313],[77.567739,18.705651],[77.567401,18.707]],[[77.538384,18.69789],[77.539396,18.697553],[77.539396,18.69789],[77.538384,18.69789]],[[77.382499,18.30413],[77.382837,18.303455],[77.382837,18.30413],[77.382499,18.30413]],[[77.907175,18.081101],[77.901777,18.080089],[77.900764,18.079076],[77.900764,18.077052],[77.904138,18.076714],[77.907175,18.078402],[77.907175,18.081101]],[[77.982081,17.946811],[77.97567,17.946473],[77.973645,17.945461],[77.971621,17.943437],[77.969934,17.938713],[77.970271,17.934664],[77.972633,17.931965],[77.976007,17.930615],[77.976345,17.92994],[77.980394,17.927916],[77.984442,17.927916],[77.988154,17.930952],[77.989504,17.933314],[77.989841,17.936351],[77.988829,17.942424],[77.987479,17.944786],[77.985117,17.946136],[77.982081,17.946811]]]]}}]}