{"type":"FeatureCollection","features":[{"type":"Feature","properties":{"level":-2395},"geometry":{"type":"Polygon","coordinates":[[[77.641294,18.711049],[77.639945,18.710037],[77.638595,18.707338],[77.636908,18.707338],[77.635558,18.70835],[77.631847,18.708687],[77.630497,18.7097],[77.628135,18.7097],[77.626111,18.70835],[77.623749,18.70835],[77.6197,18.704976],[77.619363,18.702614],[77.620037,18.702277],[77.620037,18.701264],[77.617676,18.699577],[77.615988,18.699915],[77.615651,18.701939],[77.614976,18.702614],[77.613627,18.702614],[77.612952,18.704976],[77.611602,18.705651],[77.606878,18.703289],[77.602155,18.703289],[77.601142,18.703964],[77.599793,18.703964],[77.597431,18.703289],[77.596419,18.702277],[77.595406,18.702277],[77.594394,18.703289],[77.594732,18.706325],[77.593044,18.707675],[77.587646,18.707338],[77.584947,18.704638],[77.582585,18.704638],[77.581572,18.706325],[77.580898,18.706325],[77.578536,18.705313],[77.576511,18.703626],[77.576511,18.702614],[77.577861,18.701939],[77.578873,18.699915],[77.578536,18.698902],[77.574824,18.698228],[77.572125,18.696541],[77.567739,18.696541],[77.566389,18.695866],[77.565039,18.694516],[77.564027,18.690804],[77.56234,18.689455],[77.562003,18.68743],[77.559303,18.68743],[77.557954,18.684731],[77.555592,18.684731],[77.554579,18.685743],[77.552892,18.686081],[77.553567,18.688443],[77.55188,18.689455],[77.551543,18.691142],[77.550193,18.692154],[77.544457,18.692154],[77.543107,18.690804],[77.537034,18.689792],[77.53501,18.690804],[77.530623,18.695191],[77.528936,18.695191],[77.523875,18.692829],[77.523875,18.690467],[77.52455,18.689117],[77.525899,18.688105],[77.525899,18.687093],[77.522525,18.683044],[77.522525,18.682369],[77.520501,18.681694],[77.519489,18.680682],[77.519151,18.678995],[77.518139,18.678995],[77.518139,18.680007],[77.518814,18.680345],[77.518476,18.682032],[77.516452,18.683719],[77.515102,18.684056],[77.512066,18.683044],[77.511391,18.68102],[77.509366,18.678995],[77.509366,18.673596],[77.509029,18.672584],[77.507004,18.67056],[77.505655,18.664486],[77.50498,18.663474],[77.501606,18.663474],[77.501606,18.664486],[77.502955,18.665499],[77.502955,18.667523],[77.501268,18.668198],[77.499919,18.669548],[77.499919,18.670222],[77.498232,18.671235],[77.498232,18.672922],[77.498906,18.673934],[77.498569,18.674609],[77.496207,18.674271],[77.495195,18.673596],[77.49452,18.671235],[77.492158,18.670222],[77.490809,18.668873],[77.490809,18.66786],[77.493845,18.666511],[77.493845,18.665499],[77.49317,18.664486],[77.491821,18.664149],[77.490809,18.663137],[77.490471,18.66145],[77.488447,18.659763],[77.483048,18.659763],[77.482036,18.65875],[77.481698,18.657063],[77.478999,18.655376],[77.477312,18.655714],[77.476975,18.657063],[77.476975,18.658413],[77.478999,18.659763],[77.476975,18.66145],[77.47765,18.668873],[77.478662,18.67056],[77.482373,18.671909],[77.484398,18.674271],[77.485073,18.674271],[77.487434,18.676633],[77.488109,18.678658],[77.491146,18.681357],[77.492158,18.685068],[77.492833,18.685743],[77.493508,18.689455],[77.49317,18.69013],[77.491821,18.69013],[77.489122,18.688443],[77.487097,18.688105],[77.485747,18.687093],[77.482373,18.686081],[77.480349,18.683719],[77.479337,18.683381],[77.478999,18.68102],[77.477987,18.67967],[77.4763,18.67967],[77.474613,18.68102],[77.471914,18.680345],[77.469214,18.677308],[77.469214,18.674609],[77.470564,18.673259],[77.470901,18.671909],[77.470226,18.670897],[77.466178,18.67056],[77.465503,18.669885],[77.465503,18.665499],[77.460779,18.665836],[77.459429,18.664486],[77.454368,18.665161],[77.449982,18.663137],[77.449307,18.662124],[77.448632,18.662124],[77.44762,18.660775],[77.445933,18.6601],[77.444246,18.658413],[77.443571,18.658413],[77.439522,18.654701],[77.438847,18.65099],[77.436823,18.650652],[77.434798,18.649303],[77.434461,18.646941],[77.433111,18.645929],[77.432436,18.644242],[77.427713,18.642555],[77.424001,18.642555],[77.422651,18.641205],[77.422651,18.64053],[77.420627,18.638843],[77.416578,18.639518],[77.412866,18.637831],[77.406456,18.632432],[77.405106,18.629395],[77.404431,18.629395],[77.402069,18.627034],[77.398358,18.625347],[77.397345,18.624334],[77.395996,18.621635],[77.395321,18.621298],[77.395321,18.616574],[77.393634,18.612525],[77.392622,18.61185],[77.392959,18.609151],[77.393634,18.608476],[77.394984,18.608476],[77.396671,18.609488],[77.404094,18.609151],[77.405106,18.608476],[77.40848,18.608476],[77.40983,18.609151],[77.40983,18.608139],[77.410505,18.607464],[77.410505,18.605439],[77.409492,18.603077],[77.407468,18.601053],[77.405443,18.600041],[77.405781,18.597679],[77.404431,18.595992],[77.401732,18.595654],[77.400382,18.594305],[77.39802,18.593967],[77.39802,18.591943],[77.396671,18.590256],[77.396333,18.587894],[77.392959,18.585532],[77.391272,18.581483],[77.389922,18.580471],[77.389922,18.579796],[77.386886,18.578109],[77.386548,18.574397],[77.385536,18.573048],[77.38115,18.572035],[77.380475,18.570686],[77.378788,18.570686],[77.377776,18.572373],[77.376426,18.572373],[77.374401,18.570686],[77.37204,18.570348],[77.368328,18.567986],[77.365966,18.567649],[77.362255,18.564612],[77.361242,18.560226],[77.359555,18.558539],[77.35888,18.554827],[77.358206,18.553478],[77.356519,18.552128],[77.356519,18.548079],[77.354832,18.544368],[77.355169,18.543018],[77.358206,18.542343],[77.358543,18.541668],[77.354157,18.541331],[77.353144,18.540319],[77.350783,18.535258],[77.348758,18.53357],[77.346734,18.529522],[77.346396,18.52581],[77.345721,18.524798],[77.345721,18.521086],[77.346396,18.521086],[77.346734,18.522436],[77.349433,18.525135],[77.351457,18.525135],[77.352132,18.52446],[77.352132,18.522773],[77.351457,18.521761],[77.351457,18.518724],[77.350783,18.517037],[77.350108,18.5167],[77.350108,18.515688],[77.352132,18.51535],[77.35247,18.514001],[77.350108,18.512988],[77.346059,18.509952],[77.344034,18.509277],[77.34066,18.509614],[77.338973,18.507927],[77.335599,18.507252],[77.333912,18.505565],[77.332562,18.505228],[77.329526,18.501854],[77.323115,18.49848],[77.320078,18.496118],[77.320078,18.493418],[77.320753,18.492744],[77.324802,18.492744],[77.330538,18.493756],[77.330538,18.492744],[77.33155,18.491394],[77.333912,18.490719],[77.334924,18.487345],[77.336611,18.485995],[77.336949,18.484646],[77.339648,18.482284],[77.34066,18.480259],[77.34201,18.474523],[77.338973,18.4698],[77.338636,18.463389],[77.336611,18.459002],[77.336274,18.454616],[77.337286,18.452254],[77.338636,18.451242],[77.338636,18.450567],[77.341335,18.44753],[77.341672,18.445843],[77.340998,18.443481],[77.342685,18.441794],[77.342685,18.439432],[77.340323,18.436733],[77.339648,18.436733],[77.338298,18.435046],[77.337286,18.434709],[77.335936,18.432009],[77.335262,18.431672],[77.334249,18.428973],[77.333575,18.424924],[77.333575,18.419525],[77.335262,18.41109],[77.336611,18.408728],[77.336611,18.407716],[77.337286,18.407378],[77.337623,18.406029],[77.339985,18.403329],[77.341335,18.40063],[77.343022,18.399618],[77.344709,18.397593],[77.345384,18.397593],[77.347408,18.395231],[77.350445,18.393882],[77.354157,18.389495],[77.354832,18.386459],[77.356181,18.384097],[77.356181,18.382747],[77.355506,18.381735],[77.354832,18.378023],[77.35247,18.373975],[77.35247,18.370938],[77.354832,18.36149],[77.358206,18.358116],[77.36158,18.356092],[77.362592,18.354067],[77.363942,18.353055],[77.364954,18.350018],[77.366641,18.348331],[77.371702,18.345632],[77.372714,18.343945],[77.375076,18.342595],[77.375751,18.339559],[77.375076,18.337534],[77.373727,18.336522],[77.373389,18.33416],[77.374064,18.331798],[77.374064,18.328086],[77.375076,18.325387],[77.374739,18.32235],[77.375414,18.321001],[77.375414,18.319314],[77.376426,18.317627],[77.376088,18.314927],[77.378113,18.310204],[77.3798,18.308179],[77.38115,18.307167],[77.385199,18.306155],[77.386548,18.305142],[77.386886,18.30413],[77.386548,18.301768],[77.385873,18.301431],[77.385873,18.300756],[77.383849,18.299744],[77.380137,18.299406],[77.377776,18.29637],[77.374739,18.289622],[77.374739,18.288609],[77.371365,18.284898],[77.369678,18.281524],[77.36934,18.277137],[77.368328,18.276125],[77.367991,18.273426],[77.367991,18.270389],[77.37069,18.267352],[77.37069,18.263978],[77.369678,18.260267],[77.369678,18.256555],[77.37069,18.252844],[77.37069,18.247782],[77.376088,18.238335],[77.378113,18.236648],[77.379463,18.23631],[77.380475,18.234961],[77.380137,18.229562],[77.38115,18.225513],[77.382162,18.224164],[77.382162,18.220452],[77.382499,18.218765],[77.383174,18.21809],[77.383174,18.214379],[77.383849,18.212017],[77.385536,18.208305],[77.386211,18.207968],[77.386548,18.206618],[77.387898,18.204931],[77.387898,18.203919],[77.389248,18.201894],[77.390935,18.197171],[77.395658,18.192109],[77.396333,18.192109],[77.397683,18.19076],[77.397683,18.190085],[77.400382,18.186373],[77.40072,18.184349],[77.402407,18.180637],[77.404431,18.178276],[77.404431,18.177601],[77.405443,18.176926],[77.405443,18.176251],[77.40848,18.173214],[77.410167,18.170178],[77.415903,18.165116],[77.416578,18.162755],[77.41894,18.158706],[77.421302,18.156681],[77.421302,18.156006],[77.424338,18.15297],[77.424338,18.152295],[77.427713,18.149258],[77.429062,18.146221],[77.430749,18.144872],[77.433449,18.140148],[77.435136,18.138798],[77.43716,18.134749],[77.439859,18.133062],[77.443908,18.13205],[77.444246,18.131375],[77.44627,18.1307],[77.451669,18.125977],[77.452344,18.12429],[77.454368,18.121928],[77.45538,18.117541],[77.45673,18.114505],[77.458417,18.112818],[77.46584,18.108769],[77.473601,18.107756],[77.480011,18.104382],[77.484735,18.100671],[77.489796,18.098309],[77.502281,18.094597],[77.50498,18.092573],[77.507004,18.089874],[77.507679,18.089874],[77.508354,18.088861],[77.511391,18.087512],[77.512403,18.086499],[77.519151,18.084812],[77.523875,18.082113],[77.527924,18.081776],[77.533997,18.080089],[77.536359,18.078739],[77.547156,18.076377],[77.549856,18.075027],[77.550868,18.073678],[77.551543,18.073678],[77.553567,18.070978],[77.557616,18.068954],[77.561328,18.067942],[77.570438,18.06693],[77.576849,18.063555],[77.583934,18.062206],[77.588658,18.060519],[77.597431,18.059844],[77.601817,18.057819],[77.603842,18.057819],[77.607553,18.059506],[77.611265,18.059169],[77.616663,18.056807],[77.62105,18.056132],[77.622062,18.05512],[77.623412,18.054783],[77.624086,18.05377],[77.624761,18.05377],[77.626111,18.052083],[77.629148,18.050734],[77.629485,18.050059],[77.645006,18.043311],[77.655128,18.043311],[77.664238,18.040611],[77.675373,18.039937],[77.680434,18.038587],[77.684483,18.038587],[77.685833,18.039262],[77.693256,18.038924],[77.699667,18.040949],[77.70439,18.040611],[77.713163,18.043648],[77.72396,18.043648],[77.730709,18.044998],[77.734083,18.046347],[77.740156,18.047022],[77.743193,18.048034],[77.74623,18.050396],[77.747579,18.050734],[77.747917,18.051409],[77.748929,18.051409],[77.755002,18.054445],[77.764112,18.055458],[77.772885,18.058157],[77.773897,18.059169],[77.776934,18.060519],[77.778621,18.062543],[77.782333,18.064568],[77.795154,18.067604],[77.802577,18.067604],[77.806626,18.066255],[77.808313,18.064568],[77.808313,18.063893],[77.810675,18.061868],[77.810675,18.061194],[77.812362,18.060181],[77.823834,18.059506],[77.826534,18.057482],[77.828221,18.05512],[77.832944,18.052758],[77.833282,18.052083],[77.839355,18.049047],[77.851165,18.045673],[77.854876,18.043311],[77.858925,18.043311],[77.864661,18.044323],[77.866686,18.045335],[77.868373,18.047022],[77.869385,18.049722],[77.871072,18.051409],[77.873096,18.052083],[77.87782,18.052421],[77.882207,18.054783],[77.883556,18.054783],[77.884231,18.05377],[77.884231,18.051071],[77.882544,18.04601],[77.882544,18.043648],[77.884569,18.040949],[77.88963,18.038924],[77.896378,18.033863],[77.89739,18.033863],[77.900764,18.032176],[77.905825,18.030826],[77.909874,18.030826],[77.912911,18.031839],[77.914936,18.032851],[77.915273,18.033526],[77.916623,18.033863],[77.918647,18.036225],[77.919322,18.036225],[77.925058,18.041961],[77.925733,18.043648],[77.92742,18.045335],[77.929444,18.052758],[77.929444,18.057819],[77.928769,18.059169],[77.928432,18.066255],[77.925395,18.069966],[77.923033,18.070978],[77.921009,18.073003],[77.915948,18.075027],[77.913586,18.077389],[77.911224,18.077052],[77.908862,18.07469],[77.905151,18.073003],[77.900427,18.071653],[77.895703,18.071316],[77.895028,18.073678],[77.895703,18.077727],[77.896715,18.080089],[77.898402,18.081776],[77.903801,18.084138],[77.911899,18.084475],[77.914598,18.085487],[77.918647,18.089536],[77.921346,18.090886],[77.923708,18.093248],[77.924383,18.093248],[77.926408,18.09561],[77.934505,18.100333],[77.93653,18.102358],[77.937542,18.10472],[77.938892,18.106069],[77.942941,18.108094],[77.947327,18.112818],[77.948339,18.113155],[77.948677,18.114167],[77.951039,18.115179],[77.955088,18.115517],[77.960149,18.117879],[77.960486,18.118891],[77.962848,18.121253],[77.963523,18.123277],[77.964535,18.123952],[77.96521,18.125639],[77.971283,18.131375],[77.974995,18.137786],[77.978706,18.139811],[77.979719,18.14116],[77.982081,18.14251],[77.98613,18.147234],[77.990853,18.147571],[77.992203,18.146896],[77.995915,18.146896],[77.997602,18.147908],[77.998951,18.150945],[77.999963,18.15162],[77.999963,18.521086],[77.993215,18.525135],[77.991866,18.527834],[77.990516,18.528847],[77.990516,18.529522],[77.989841,18.529522],[77.988829,18.530871],[77.987817,18.531209],[77.987817,18.531883],[77.98613,18.532896],[77.985455,18.534245],[77.985455,18.537619],[77.983768,18.540994],[77.983768,18.542681],[77.983093,18.54403],[77.983093,18.545717],[77.984442,18.547742],[77.984105,18.549429],[77.981743,18.551453],[77.977694,18.552803],[77.973645,18.557189],[77.973645,18.557864],[77.970946,18.560901],[77.970609,18.56225],[77.967234,18.565962],[77.967234,18.566637],[77.963523,18.568999],[77.963523,18.570348],[77.962848,18.571361],[77.963186,18.57406],[77.961161,18.578446],[77.958124,18.580471],[77.956775,18.580471],[77.952726,18.582158],[77.951376,18.583507],[77.949352,18.584182],[77.947665,18.586207],[77.945978,18.587219],[77.943278,18.592618],[77.941254,18.593967],[77.940242,18.596329],[77.939567,18.596667],[77.938217,18.599366],[77.937542,18.603077],[77.93653,18.604764],[77.932144,18.609151],[77.930457,18.609826],[77.92742,18.612862],[77.926745,18.612862],[77.925058,18.614887],[77.920334,18.616574],[77.908187,18.616911],[77.903801,18.618598],[77.900427,18.622985],[77.900427,18.624672],[77.901777,18.625684],[77.903126,18.628383],[77.903464,18.634457],[77.902451,18.636819],[77.901439,18.637831],[77.899415,18.638506],[77.899077,18.63918],[77.893679,18.641205],[77.890642,18.646604],[77.887605,18.649303],[77.887605,18.649978],[77.884569,18.652677],[77.883894,18.654027],[77.882544,18.654701],[77.879507,18.654701],[77.876808,18.655376],[77.871072,18.658413],[77.864661,18.65875],[77.861962,18.658413],[77.860612,18.655714],[77.8596,18.655039],[77.853527,18.655376],[77.849478,18.657738],[77.846778,18.660775],[77.846778,18.66145],[77.844079,18.663137],[77.835306,18.662799],[77.829908,18.6601],[77.827883,18.6601],[77.826534,18.661112],[77.826196,18.662124],[77.825521,18.662124],[77.824847,18.663137],[77.822485,18.664149],[77.819448,18.666511],[77.818436,18.669885],[77.814724,18.673934],[77.81,18.675958],[77.806626,18.676296],[77.80359,18.677308],[77.797516,18.682369],[77.787731,18.685406],[77.784695,18.68743],[77.780308,18.68878],[77.771535,18.688443],[77.767487,18.689792],[77.762088,18.69013],[77.757027,18.694516],[77.751628,18.696203],[77.750616,18.697215],[77.74488,18.698902],[77.736107,18.698902],[77.732733,18.69789],[77.729696,18.694853],[77.729696,18.687768],[77.728684,18.686418],[77.727334,18.685743],[77.719237,18.685068],[77.713838,18.682369],[77.708439,18.681694],[77.702029,18.676971],[77.701354,18.676971],[77.698317,18.673934],[77.694943,18.672247],[77.689882,18.671909],[77.68617,18.672584],[77.683471,18.672247],[77.681446,18.672922],[77.679085,18.672922],[77.67841,18.672247],[77.673686,18.672247],[77.670987,18.673259],[77.665588,18.672922],[77.665251,18.673596],[77.662214,18.674946],[77.660527,18.674946],[77.659515,18.673934],[77.656815,18.672922],[77.654453,18.674271],[77.652766,18.676633],[77.650742,18.676296],[77.650742,18.677983],[77.648043,18.680682],[77.648043,18.683044],[77.649392,18.686756],[77.654116,18.68743],[77.655128,18.689117],[77.654791,18.691142],[77.653441,18.692492],[77.652766,18.692492],[77.652092,18.693841],[77.652092,18.696541],[77.652766,18.698565],[77.64838,18.699915],[77.64703,18.699915],[77.645681,18.698902],[77.643656,18.698902],[77.641969,18.699915],[77.641632,18.701602],[77.643656,18.707],[77.643656,18.710037],[77.642644,18.711049],[77.641294,18.711049]],[[77.548843,18.685743],[77.550531,18.685743],[77.55188,18.685068],[77.552892,18.683381],[77.55323,18.680345],[77.554917,18.67967],[77.557954,18.675958],[77.557954,18.674271],[77.556941,18.673259],[77.557279,18.672247],[77.560315,18.671572],[77.56234,18.670222],[77.564027,18.670222],[77.566051,18.671235],[77.566389,18.669885],[77.564027,18.669548],[77.563015,18.667186],[77.559303,18.667523],[77.557616,18.664149],[77.555929,18.664149],[77.555254,18.664824],[77.551205,18.664486],[77.550868,18.665499],[77.55188,18.666511],[77.55188,18.66786],[77.552555,18.668198],[77.552892,18.669885],[77.55188,18.669885],[77.551543,18.668873],[77.549856,18.66786],[77.548169,18.66786],[77.548506,18.671909],[77.550193,18.673596],[77.547494,18.673934],[77.546144,18.674946],[77.546482,18.676633],[77.547831,18.677308],[77.547831,18.677983],[77.545807,18.679332],[77.545807,18.680682],[77.546819,18.682707],[77.547494,18.683044],[77.547831,18.685068],[77.548843,18.685743]],[[77.530961,18.682032],[77.531973,18.681694],[77.531973,18.68102],[77.528261,18.68102],[77.528261,18.681694],[77.530286,18.681357],[77.530961,18.682032]],[[77.564702,18.677308],[77.565377,18.677645],[77.565377,18.677308],[77.564702,18.677308]],[[77.543782,18.673259],[77.546482,18.672247],[77.547156,18.671235],[77.545807,18.67056],[77.543107,18.671572],[77.543107,18.672922],[77.543782,18.673259]],[[77.532648,18.672247],[77.533997,18.671909],[77.533997,18.670897],[77.531298,18.668535],[77.529948,18.668535],[77.529274,18.66921],[77.529274,18.670222],[77.532648,18.672247]],[[77.496207,18.669885],[77.497219,18.669885],[77.497557,18.668535],[77.495195,18.666848],[77.495195,18.668873],[77.496207,18.669885]],[[77.534672,18.667523],[77.537034,18.668198],[77.536697,18.666173],[77.53366,18.666173],[77.534672,18.667523]],[[77.499244,18.66145],[77.500931,18.660775],[77.500256,18.659425],[77.495532,18.659425],[77.49587,18.660437],[77.499244,18.66145]],[[77.46449,18.642892],[77.465503,18.642892],[77.465503,18.642555],[77.46449,18.642217],[77.46449,18.642892]],[[77.359218,18.521086],[77.36023,18.521086],[77.359893,18.518724],[77.35888,18.518724],[77.359218,18.521086]],[[77.359893,18.502866],[77.36158,18.502529],[77.362929,18.501179],[77.362592,18.499492],[77.36023,18.499829],[77.35888,18.500841],[77.35888,18.501854],[77.359893,18.502866]],[[77.581572,18.156344],[77.584609,18.156006],[77.585621,18.154319],[77.585284,18.151283],[77.582922,18.148921],[77.580898,18.148921],[77.578536,18.150945],[77.578198,18.151957],[77.578198,18.153307],[77.579211,18.154994],[77.581572,18.156344]]]}}]}