{"type":"FeatureCollection","features":[{"type":"Feature","properties":{"level":-2500},"geometry":{"type":"Polygon","coordinates":[[[77.693931,18.656051],[77.689882,18.653014],[77.688195,18.653014],[77.68617,18.654364],[77.681446,18.654364],[77.680434,18.653352],[77.678072,18.652677],[77.678072,18.652002],[77.676048,18.650315],[77.670312,18.651327],[77.6693,18.65234],[77.6693,18.653689],[77.668625,18.654027],[77.666938,18.654027],[77.665925,18.653352],[77.660189,18.654027],[77.65884,18.65099],[77.657828,18.65099],[77.656815,18.652002],[77.655128,18.652002],[77.652429,18.65099],[77.64838,18.650652],[77.64703,18.651665],[77.646693,18.653689],[77.645681,18.654701],[77.642981,18.654701],[77.641632,18.654027],[77.638932,18.654364],[77.636908,18.653014],[77.633871,18.65234],[77.633534,18.651665],[77.631509,18.650652],[77.631172,18.64964],[77.629822,18.649303],[77.628473,18.647953],[77.626111,18.647616],[77.623074,18.642555],[77.620375,18.642555],[77.619025,18.641205],[77.617676,18.64188],[77.617001,18.640868],[77.614639,18.640868],[77.613964,18.641542],[77.613627,18.643229],[77.611602,18.643229],[77.611265,18.642555],[77.612277,18.641205],[77.613289,18.637831],[77.614976,18.636819],[77.614976,18.635469],[77.613627,18.634457],[77.61194,18.634119],[77.61059,18.631757],[77.60924,18.630745],[77.60924,18.63007],[77.606541,18.627708],[77.605866,18.627708],[77.605529,18.628721],[77.605866,18.632095],[77.604854,18.633107],[77.602155,18.633107],[77.601142,18.634794],[77.596419,18.636144],[77.59102,18.636144],[77.58967,18.637156],[77.586634,18.638168],[77.582585,18.638506],[77.582247,18.636819],[77.584272,18.633782],[77.586296,18.633782],[77.587308,18.634457],[77.58967,18.634457],[77.590683,18.633782],[77.590345,18.63142],[77.588658,18.631083],[77.587983,18.630408],[77.583597,18.63007],[77.582585,18.629058],[77.582922,18.627708],[77.585284,18.626021],[77.585284,18.621635],[77.585959,18.619611],[77.582922,18.619273],[77.578873,18.617586],[77.577186,18.617586],[77.575836,18.616911],[77.574824,18.615562],[77.569088,18.612862],[77.564702,18.613537],[77.56369,18.614212],[77.563352,18.615224],[77.560315,18.615224],[77.558291,18.614212],[77.557616,18.6132],[77.553905,18.612862],[77.552218,18.610838],[77.551543,18.606451],[77.549856,18.603752],[77.552555,18.603415],[77.554917,18.604427],[77.555592,18.605102],[77.555929,18.607464],[77.557954,18.608813],[77.557954,18.609488],[77.559641,18.611513],[77.561328,18.611513],[77.563015,18.609826],[77.564027,18.609826],[77.565377,18.6105],[77.567739,18.6105],[77.572462,18.612187],[77.574824,18.614212],[77.576849,18.614212],[77.578873,18.6132],[77.580898,18.615562],[77.582247,18.614887],[77.584272,18.614887],[77.586971,18.617586],[77.586971,18.618261],[77.590683,18.621635],[77.592707,18.622647],[77.595069,18.622985],[77.595744,18.624672],[77.596756,18.625347],[77.599793,18.626021],[77.599793,18.624672],[77.597768,18.622985],[77.597768,18.617923],[77.598443,18.616911],[77.603504,18.616911],[77.604516,18.616236],[77.606541,18.616236],[77.607216,18.617249],[77.608903,18.616911],[77.608903,18.610838],[77.609915,18.609488],[77.609915,18.607801],[77.608565,18.606114],[77.604516,18.60409],[77.604516,18.602403],[77.605529,18.60139],[77.605866,18.598691],[77.606878,18.598354],[77.606878,18.595992],[77.606204,18.594642],[77.603504,18.595654],[77.600468,18.598016],[77.598443,18.595992],[77.598443,18.59363],[77.597093,18.591943],[77.593382,18.591268],[77.592032,18.592955],[77.591357,18.596329],[77.589333,18.595992],[77.586971,18.592618],[77.584272,18.59228],[77.581235,18.595992],[77.579548,18.595992],[77.577186,18.597679],[77.575499,18.597004],[77.573137,18.598691],[77.568076,18.598354],[77.565039,18.595654],[77.56099,18.595654],[77.559303,18.597004],[77.558966,18.598016],[77.557616,18.598354],[77.555929,18.595992],[77.553567,18.594979],[77.552555,18.59363],[77.546144,18.592955],[77.544795,18.59228],[77.54412,18.588906],[77.545132,18.587556],[77.545132,18.586544],[77.543445,18.58452],[77.54277,18.58452],[77.54277,18.583507],[77.543782,18.582495],[77.545807,18.58182],[77.545807,18.581146],[77.54412,18.579459],[77.542433,18.579121],[77.539733,18.579796],[77.538046,18.581146],[77.53366,18.581483],[77.532648,18.582495],[77.531973,18.585532],[77.525899,18.585532],[77.524887,18.58452],[77.523875,18.581483],[77.5232,18.581146],[77.521851,18.581146],[77.521851,18.58182],[77.520163,18.58317],[77.519826,18.584182],[77.517464,18.584857],[77.517802,18.586207],[77.519151,18.587219],[77.521176,18.587556],[77.52455,18.586882],[77.526237,18.588569],[77.526237,18.589918],[77.524212,18.592955],[77.520163,18.592618],[77.518814,18.593292],[77.515777,18.593292],[77.514765,18.595654],[77.51274,18.595992],[77.512066,18.596667],[77.512403,18.598016],[77.510716,18.599366],[77.510716,18.600715],[77.512066,18.602065],[77.513753,18.60274],[77.517464,18.602065],[77.520838,18.603077],[77.521176,18.605439],[77.520501,18.606114],[77.520163,18.607801],[77.519151,18.607801],[77.518139,18.606789],[77.517802,18.605102],[77.516114,18.60409],[77.50633,18.604427],[77.505655,18.603752],[77.505655,18.60274],[77.50633,18.602403],[77.50633,18.600378],[77.505655,18.599703],[77.502618,18.599703],[77.501268,18.598354],[77.501268,18.597679],[77.502281,18.597004],[77.50633,18.597341],[77.508017,18.596667],[77.508691,18.594979],[77.507679,18.591605],[77.504642,18.590256],[77.50363,18.589243],[77.501943,18.589243],[77.500594,18.590256],[77.498569,18.590256],[77.498232,18.589243],[77.499581,18.587894],[77.503293,18.587894],[77.505317,18.586882],[77.505655,18.585195],[77.50498,18.584857],[77.50498,18.583845],[77.506667,18.582833],[77.506667,18.582158],[77.502955,18.580808],[77.502281,18.579796],[77.500931,18.579459],[77.499581,18.578109],[77.49587,18.577434],[77.49452,18.574397],[77.492158,18.57271],[77.491483,18.571361],[77.489122,18.571361],[77.487772,18.570686],[77.487772,18.569336],[77.488784,18.568661],[77.488784,18.567986],[77.486422,18.567986],[77.482711,18.570686],[77.477987,18.571361],[77.476975,18.573385],[77.47495,18.575072],[77.472926,18.575072],[77.472251,18.574397],[77.471914,18.571698],[77.468202,18.572035],[77.467527,18.571361],[77.466515,18.571361],[77.466515,18.57406],[77.464828,18.575747],[77.464828,18.578446],[77.464153,18.579121],[77.460104,18.579121],[77.457067,18.578446],[77.455043,18.577434],[77.450994,18.573048],[77.451331,18.571023],[77.454368,18.568661],[77.455043,18.568661],[77.457405,18.565962],[77.457405,18.558876],[77.45538,18.557189],[77.45538,18.555165],[77.454368,18.553815],[77.452006,18.554153],[77.452006,18.55314],[77.452681,18.552466],[77.452006,18.550441],[77.450994,18.550441],[77.449982,18.552466],[77.447957,18.552128],[77.446945,18.550441],[77.444583,18.550104],[77.441884,18.550104],[77.441209,18.550778],[77.43716,18.550778],[77.437497,18.550104],[77.439859,18.549091],[77.443571,18.548754],[77.443908,18.548079],[77.445933,18.547067],[77.44627,18.545717],[77.443571,18.544705],[77.437835,18.544705],[77.434123,18.543355],[77.425688,18.541668],[77.423664,18.540319],[77.421302,18.539644],[77.418602,18.537619],[77.414891,18.537282],[77.414216,18.536607],[77.414216,18.535595],[77.414891,18.53492],[77.419952,18.532896],[77.420627,18.531883],[77.420289,18.528509],[77.416578,18.524123],[77.415903,18.518724],[77.416915,18.517375],[77.420627,18.516025],[77.422314,18.514001],[77.424001,18.513663],[77.426025,18.512313],[77.427375,18.512313],[77.431087,18.5167],[77.433111,18.517712],[77.434123,18.517712],[77.43581,18.51535],[77.43581,18.512651],[77.434123,18.510626],[77.432436,18.509952],[77.429737,18.509952],[77.42805,18.511301],[77.427038,18.511301],[77.425688,18.509952],[77.425688,18.50759],[77.429062,18.506915],[77.430749,18.505903],[77.433449,18.505903],[77.434798,18.50489],[77.435136,18.503541],[77.434123,18.501516],[77.431424,18.498817],[77.424338,18.495443],[77.423664,18.494768],[77.423664,18.492744],[77.428725,18.488357],[77.433786,18.486333],[77.43581,18.484308],[77.438172,18.483296],[77.438847,18.481272],[77.437497,18.479922],[77.433111,18.480934],[77.430412,18.480934],[77.430749,18.477897],[77.42805,18.475536],[77.427375,18.474186],[77.427375,18.472499],[77.426025,18.4698],[77.423326,18.467438],[77.422989,18.465076],[77.421639,18.463726],[77.421639,18.462714],[77.420627,18.461702],[77.418265,18.462039],[77.417253,18.460015],[77.413541,18.460689],[77.411517,18.459677],[77.409155,18.459677],[77.405106,18.461027],[77.402744,18.461027],[77.401057,18.459677],[77.399707,18.455966],[77.398358,18.454616],[77.395658,18.454279],[77.392959,18.456641],[77.392959,18.457315],[77.390935,18.45934],[77.390597,18.460689],[77.389248,18.461702],[77.387898,18.461702],[77.386886,18.460689],[77.382837,18.460352],[77.38115,18.45799],[77.377438,18.455966],[77.377438,18.454953],[77.378113,18.454279],[77.380475,18.453604],[77.381824,18.452254],[77.381824,18.449892],[77.38115,18.449217],[77.380475,18.445506],[77.3798,18.444831],[77.380475,18.440445],[77.383174,18.438083],[77.383849,18.436396],[77.385873,18.436733],[77.387898,18.438083],[77.388573,18.438083],[77.388573,18.437071],[77.38756,18.436733],[77.38756,18.435721],[77.386548,18.434709],[77.383849,18.434371],[77.380812,18.429985],[77.379463,18.429985],[77.376088,18.428298],[77.375076,18.427286],[77.374401,18.425261],[77.372714,18.425599],[77.37204,18.42796],[77.369678,18.427623],[77.367653,18.430322],[77.365629,18.429985],[77.365966,18.425599],[77.365291,18.424924],[77.365291,18.423574],[77.367316,18.422899],[77.367991,18.420875],[77.36934,18.419525],[77.370352,18.414127],[77.371027,18.413452],[77.373389,18.413452],[77.374401,18.412777],[77.374064,18.411765],[77.371027,18.410752],[77.37069,18.405016],[77.371365,18.404004],[77.368328,18.399955],[77.368328,18.397593],[77.370015,18.395569],[77.369678,18.39017],[77.369003,18.389495],[77.369003,18.388483],[77.37069,18.386121],[77.37204,18.385447],[77.37204,18.384097],[77.370015,18.38241],[77.370015,18.380723],[77.371027,18.378361],[77.371027,18.375999],[77.371702,18.374987],[77.371702,18.3706],[77.373052,18.366551],[77.375076,18.36419],[77.377101,18.363177],[77.380475,18.36284],[77.381487,18.362165],[77.381824,18.359128],[77.383512,18.355417],[77.384524,18.354742],[77.385873,18.352043],[77.387223,18.351368],[77.387223,18.350693],[77.38891,18.348669],[77.389248,18.340571],[77.391947,18.338209],[77.392284,18.335847],[77.393971,18.334497],[77.394984,18.332473],[77.394984,18.327749],[77.394309,18.324375],[77.391947,18.321676],[77.391947,18.319989],[77.392959,18.318302],[77.392959,18.317289],[77.396333,18.314253],[77.396671,18.311891],[77.407805,18.311891],[77.408817,18.310204],[77.407468,18.309866],[77.406456,18.308517],[77.405781,18.308517],[77.405443,18.30683],[77.410842,18.30683],[77.415228,18.305817],[77.417928,18.303793],[77.419277,18.300756],[77.41894,18.299069],[77.417928,18.298057],[77.417928,18.294683],[77.419615,18.291983],[77.419615,18.289622],[77.418602,18.288947],[77.416915,18.28591],[77.415228,18.28456],[77.413541,18.283886],[77.406793,18.283211],[77.401394,18.283211],[77.400045,18.283886],[77.396671,18.283886],[77.396333,18.282198],[77.395321,18.280849],[77.393971,18.281186],[77.393971,18.282536],[77.392284,18.283548],[77.391947,18.28456],[77.390935,18.283886],[77.390935,18.283211],[77.388573,18.281186],[77.387898,18.277812],[77.385873,18.276125],[77.384186,18.270389],[77.383512,18.269714],[77.383512,18.260267],[77.385873,18.256555],[77.386211,18.254193],[77.386886,18.253856],[77.386886,18.252844],[77.387898,18.251494],[77.388573,18.248457],[77.39026,18.24677],[77.391272,18.244746],[77.391272,18.240359],[77.394309,18.231249],[77.394309,18.226863],[77.397008,18.220789],[77.398358,18.219102],[77.399032,18.217078],[77.39937,18.212017],[77.40072,18.20763],[77.403419,18.203244],[77.403756,18.200882],[77.406118,18.196833],[77.406118,18.195821],[77.40848,18.192784],[77.412529,18.18165],[77.414553,18.179625],[77.41759,18.178276],[77.421639,18.173552],[77.422989,18.173214],[77.424676,18.171527],[77.425351,18.16984],[77.427375,18.167478],[77.427713,18.165116],[77.4294,18.16208],[77.431761,18.16073],[77.435473,18.159718],[77.436823,18.158031],[77.437497,18.158031],[77.438847,18.156681],[77.440197,18.153644],[77.446945,18.147234],[77.448969,18.143522],[77.452681,18.140485],[77.453356,18.138798],[77.45538,18.136774],[77.45538,18.136099],[77.458417,18.1334],[77.459092,18.131713],[77.460779,18.130026],[77.468877,18.127326],[77.470226,18.124627],[77.471914,18.12294],[77.472588,18.12294],[77.47495,18.120915],[77.47765,18.119903],[77.477987,18.119228],[77.483723,18.117204],[77.487097,18.116867],[77.490471,18.115179],[77.491146,18.114167],[77.492158,18.11383],[77.492158,18.113155],[77.49452,18.110456],[77.497219,18.105057],[77.501268,18.101683],[77.509704,18.098646],[77.510378,18.097971],[77.514765,18.097297],[77.522188,18.093922],[77.527587,18.092573],[77.527924,18.091898],[77.531298,18.090548],[77.531635,18.089874],[77.532648,18.089874],[77.535347,18.088524],[77.535684,18.087849],[77.538384,18.086837],[77.538721,18.086162],[77.542095,18.08515],[77.545807,18.082788],[77.548506,18.082113],[77.559978,18.075702],[77.567064,18.074015],[77.572125,18.071316],[77.574149,18.069291],[77.576849,18.067942],[77.583597,18.06693],[77.590683,18.064905],[77.596419,18.064568],[77.602155,18.063218],[77.61059,18.062881],[77.615651,18.061531],[77.622062,18.060856],[77.625773,18.058832],[77.629148,18.055458],[77.640957,18.050059],[77.646356,18.049047],[77.648717,18.048034],[77.659177,18.046347],[77.665925,18.043986],[77.696293,18.044998],[77.700679,18.04601],[77.702703,18.047022],[77.717212,18.050396],[77.723286,18.050396],[77.726997,18.049384],[77.734758,18.050396],[77.740156,18.052421],[77.743193,18.055458],[77.758376,18.062543],[77.763775,18.066592],[77.770523,18.068279],[77.774235,18.070304],[77.777609,18.071316],[77.779633,18.071316],[77.786719,18.073003],[77.791105,18.073003],[77.797179,18.074353],[77.80224,18.074353],[77.806964,18.07334],[77.815399,18.069291],[77.819448,18.069291],[77.825859,18.070641],[77.834632,18.069966],[77.842729,18.065917],[77.844416,18.06423],[77.845429,18.062206],[77.848803,18.060856],[77.8596,18.061194],[77.872422,18.060181],[77.879507,18.06423],[77.88052,18.065917],[77.882544,18.067267],[77.882544,18.067942],[77.883894,18.068954],[77.883894,18.069629],[77.886593,18.072666],[77.888617,18.077052],[77.890305,18.079076],[77.891317,18.082113],[77.893679,18.08515],[77.897728,18.087174],[77.906163,18.089199],[77.908525,18.091223],[77.9092,18.091223],[77.909874,18.092235],[77.910549,18.092235],[77.911224,18.093248],[77.912911,18.093922],[77.915273,18.096284],[77.917297,18.097297],[77.91831,18.098984],[77.92607,18.106069],[77.931131,18.108094],[77.933831,18.111805],[77.940579,18.117541],[77.942603,18.120915],[77.945978,18.123952],[77.947665,18.124627],[77.948677,18.126651],[77.950026,18.127326],[77.954413,18.13205],[77.955088,18.13205],[77.955088,18.132725],[77.95745,18.135087],[77.959811,18.136099],[77.960149,18.136774],[77.963186,18.137449],[77.966897,18.139136],[77.968584,18.14116],[77.968584,18.141835],[77.970946,18.143859],[77.971621,18.145547],[77.978369,18.151957],[77.978369,18.152632],[77.98343,18.155331],[77.985455,18.161068],[77.985455,18.166804],[77.992878,18.170515],[77.99389,18.171865],[77.995577,18.17254],[77.997264,18.174227],[77.997939,18.175914],[77.997939,18.1803],[77.998951,18.182324],[77.999963,18.182662],[77.999963,18.369251],[77.998614,18.370938],[77.998951,18.373637],[77.997602,18.377686],[77.996589,18.383759],[77.994565,18.387471],[77.992203,18.389495],[77.991528,18.390845],[77.990853,18.396581],[77.990178,18.397256],[77.987817,18.404342],[77.987817,18.410078],[77.986467,18.41244],[77.986804,18.418513],[77.988829,18.422224],[77.989841,18.422899],[77.990853,18.425599],[77.992878,18.427286],[77.999963,18.429648],[77.999963,18.485995],[77.99524,18.483296],[77.990516,18.482284],[77.98613,18.482284],[77.98343,18.483296],[77.983093,18.483971],[77.980056,18.485658],[77.971283,18.485658],[77.968922,18.487008],[77.968247,18.48802],[77.967572,18.48802],[77.964873,18.491057],[77.963523,18.491731],[77.958799,18.492069],[77.956775,18.493081],[77.953738,18.496793],[77.953063,18.500841],[77.951714,18.503878],[77.951376,18.506915],[77.950364,18.508939],[77.949352,18.509614],[77.949352,18.510289],[77.948002,18.511301],[77.947327,18.512988],[77.94564,18.514675],[77.943953,18.522098],[77.941591,18.525135],[77.938892,18.526485],[77.93653,18.528509],[77.934505,18.529184],[77.932481,18.531209],[77.930457,18.534583],[77.930119,18.540994],[77.925058,18.548417],[77.923371,18.549091],[77.918985,18.549091],[77.916285,18.548079],[77.911899,18.547742],[77.911224,18.548417],[77.906838,18.549766],[77.905151,18.549766],[77.903464,18.550778],[77.898402,18.550778],[77.898065,18.55314],[77.900764,18.555165],[77.902451,18.559214],[77.902114,18.563263],[77.899077,18.566637],[77.898402,18.566637],[77.896041,18.568999],[77.896041,18.569674],[77.894353,18.571361],[77.892666,18.572035],[77.891317,18.573385],[77.889292,18.573048],[77.887268,18.570011],[77.884906,18.568999],[77.873434,18.568661],[77.869048,18.570011],[77.868373,18.571023],[77.865673,18.572373],[77.864661,18.573722],[77.85825,18.575072],[77.853864,18.577097],[77.853864,18.577771],[77.852177,18.579796],[77.851165,18.58452],[77.853527,18.591268],[77.853864,18.595317],[77.855214,18.597341],[77.857913,18.599366],[77.85825,18.60139],[77.857576,18.602403],[77.854539,18.603415],[77.852177,18.606789],[77.850827,18.607464],[77.848803,18.607464],[77.846778,18.606451],[77.842729,18.606789],[77.837331,18.612187],[77.834969,18.6132],[77.828558,18.613875],[77.827208,18.614549],[77.82316,18.619611],[77.815736,18.622985],[77.812025,18.622985],[77.809663,18.62231],[77.798866,18.621298],[77.794817,18.62231],[77.787731,18.62231],[77.785032,18.622985],[77.778284,18.622647],[77.776259,18.62096],[77.772548,18.619273],[77.77221,18.618598],[77.769174,18.617586],[77.754327,18.617586],[77.750616,18.618261],[77.748591,18.619948],[77.747917,18.619948],[77.745892,18.622647],[77.745892,18.627034],[77.746567,18.628383],[77.747579,18.629395],[77.750616,18.630408],[77.758039,18.631083],[77.760401,18.63277],[77.761413,18.635132],[77.761076,18.638506],[77.756352,18.643229],[77.751628,18.644916],[77.747917,18.644242],[77.747579,18.643567],[77.74623,18.643229],[77.744542,18.641542],[77.743868,18.641542],[77.741506,18.63918],[77.739481,18.635806],[77.735432,18.635469],[77.728684,18.637156],[77.726322,18.638506],[77.725985,18.639518],[77.724298,18.640868],[77.724298,18.641542],[77.720249,18.645591],[77.7162,18.647616],[77.715525,18.648965],[77.712488,18.651665],[77.701016,18.653352],[77.696293,18.655714],[77.693931,18.656051]],[[77.673349,18.648628],[77.674023,18.648628],[77.674698,18.647616],[77.679422,18.647278],[77.682121,18.645591],[77.682121,18.644242],[77.680772,18.643229],[77.67841,18.643229],[77.677397,18.641205],[77.676723,18.640868],[77.673686,18.641542],[77.671999,18.643567],[77.672336,18.645591],[77.673349,18.646941],[77.673349,18.648628]],[[77.661539,18.637156],[77.663564,18.636819],[77.664913,18.635132],[77.6666,18.634119],[77.669974,18.633444],[77.670987,18.63142],[77.672674,18.63142],[77.673349,18.630745],[77.673349,18.628046],[77.671661,18.627708],[77.670987,18.626021],[77.671324,18.622985],[77.6693,18.621972],[77.666938,18.622647],[77.662214,18.62231],[77.659515,18.621972],[77.65749,18.62096],[77.656141,18.623659],[77.653779,18.624334],[77.650405,18.623322],[77.650067,18.622647],[77.64838,18.621972],[77.64703,18.62231],[77.646693,18.624672],[77.64838,18.628046],[77.652092,18.628721],[77.652766,18.63142],[77.655128,18.632095],[77.656478,18.634119],[77.658502,18.634457],[77.661539,18.637156]],[[77.673349,18.628046],[77.674698,18.627371],[77.674698,18.626021],[77.673686,18.625009],[77.673011,18.625009],[77.673349,18.628046]],[[77.590345,18.587556],[77.590683,18.587894],[77.590683,18.587556],[77.590345,18.587556]],[[77.56099,18.582833],[77.563352,18.582833],[77.56369,18.581146],[77.561328,18.581146],[77.56099,18.582833]],[[77.501606,18.576084],[77.503293,18.576084],[77.50633,18.57406],[77.506667,18.572373],[77.505992,18.572035],[77.505992,18.571361],[77.504305,18.571023],[77.502618,18.571698],[77.501943,18.57271],[77.500256,18.57271],[77.499581,18.573385],[77.499581,18.574735],[77.501606,18.576084]],[[77.527249,18.57541],[77.528261,18.575072],[77.527924,18.57406],[77.526912,18.574397],[77.527249,18.57541]],[[77.539059,18.573048],[77.541083,18.573722],[77.541758,18.57271],[77.540746,18.572035],[77.539396,18.572035],[77.539059,18.573048]],[[77.519489,18.57271],[77.521513,18.57271],[77.521851,18.571023],[77.518814,18.570686],[77.518814,18.572035],[77.519489,18.57271]],[[77.441884,18.524123],[77.443233,18.523786],[77.442896,18.522773],[77.441546,18.523448],[77.441884,18.524123]],[[77.389585,18.446518],[77.390597,18.446181],[77.389922,18.443481],[77.389248,18.442807],[77.387223,18.442807],[77.38756,18.445168],[77.389585,18.446518]],[[77.407468,18.440782],[77.409492,18.440782],[77.409492,18.438758],[77.408817,18.438083],[77.407468,18.43842],[77.407468,18.440782]],[[77.38115,18.402992],[77.383174,18.402317],[77.382837,18.400968],[77.380137,18.400968],[77.380475,18.402655],[77.38115,18.402992]],[[77.374401,18.397256],[77.376088,18.397256],[77.375751,18.393207],[77.374064,18.393207],[77.372377,18.394219],[77.372377,18.395569],[77.374401,18.397256]],[[77.969934,18.346307],[77.970946,18.346307],[77.971958,18.344957],[77.971621,18.341246],[77.972633,18.338884],[77.972633,18.337534],[77.973983,18.335172],[77.973645,18.333148],[77.970946,18.331123],[77.968922,18.331123],[77.968247,18.332135],[77.968247,18.335172],[77.969934,18.341583],[77.969259,18.343945],[77.969259,18.345295],[77.969934,18.346307]],[[77.97297,18.173552],[77.975332,18.173552],[77.977357,18.172877],[77.981068,18.16984],[77.981068,18.168828],[77.978032,18.168491],[77.97567,18.169503],[77.972633,18.172202],[77.97297,18.173552]],[[77.582922,18.163092],[77.586971,18.163092],[77.589333,18.16208],[77.591357,18.160393],[77.59237,18.157356],[77.591357,18.148583],[77.590008,18.145884],[77.586971,18.142847],[77.582922,18.14116],[77.578873,18.14116],[77.576849,18.142172],[77.5728,18.146896],[77.571787,18.15027],[77.571787,18.152632],[77.573137,18.156344],[77.575499,18.159043],[77.576174,18.159043],[77.578873,18.161405],[77.582922,18.163092]],[[77.529611,18.161068],[77.532985,18.161068],[77.534335,18.160393],[77.537034,18.156681],[77.539059,18.145547],[77.538721,18.143185],[77.537709,18.14251],[77.53501,18.142172],[77.529611,18.143522],[77.525562,18.145884],[77.5232,18.148921],[77.522863,18.152632],[77.523538,18.154657],[77.525225,18.156344],[77.525225,18.157019],[77.529611,18.161068]]]}}]}