{"type":"FeatureCollection","features":[{"type":"Feature","properties":{"name":"Octavia E. Butler Landing","kind":"landing","minzoom":8},"geometry":{"type":"Point","coordinates":[77.450886,18.444627]}},{"type":"Feature","properties":{"name":"Wright Brothers Field","kind":"airfield","minzoom":13},"geometry":{"type":"Point","coordinates":[77.45102,18.444869]}},{"type":"Feature","properties":{"name":"Three Forks","kind":"depot","minzoom":12},"geometry":{"type":"Point","coordinates":[77.408253,18.452882]}}]}