{"type":"FeatureCollection","features":[{"type":"Feature","properties":{"sample_num":"1","sample_name":"Roubion","sol":"164","date":"Aug. 6, 2021","sample_location":"Polygon Valley","sample_type":"Atmospheric","rock_type":"n/a","elev":-2584.82},"geometry":{"type":"Point","coordinates":[77.451673,18.427668]}},{"type":"Feature","properties":{"sample_num":"2 & 3","sample_name":"Montdenier + Montagnac","sol":"194 & 196","date":"Sept. 6&8, 2021","sample_location":"Artuby Ridge","sample_type":"Rock Core","rock_type":"Igneous","elev":-2574.27},"geometry":{"type":"Point","coordinates":[77.444326,18.430735]}},{"type":"Feature","properties":{"sample_num":"4 & 5","sample_name":"Salette + Coulettes","sol":"262 & 271","date":"Nov. 15&24. 2021","sample_location":"South S\u00e9\u00edtah","sample_type":"Rock Core","rock_type":"Igneous","elev":-2568.82},"geometry":{"type":"Point","coordinates":[77.443054,18.43398]}},{"type":"Feature","properties":{"sample_num":"6 & 7","sample_name":"Robine + Malay","sol":"298 & 337","date":"Dec. 22, 2021 & Jan. 31, 2022","sample_location":"South S\u00e9\u00edtah","sample_type":"Rock Core","rock_type":"Igneous","elev":-2573.99},"geometry":{"type":"Point","coordinates":[77.441344,18.432636]}},{"type":"Feature","properties":{"sample_num":"8 & 9","sample_name":"Ha'ah\u00f3ni + Ats\u00e1","sol":"371 & 377","date":"Mar. 7&13, 2022","sample_location":"Octavia E. Butler Landing/Ch\u2019a\u0142 outcrop","sample_type":"Rock Core","rock_type":"Igneous","elev":-2568.36},"geometry":{"type":"Point","coordinates":[77.452422,18.443864]}},{"type":"Feature","properties":{"sample_num":"10 & 11","sample_name":"Swift Run + Skyland","sol":"490 & 495","date":"Jul. 7&12, 2022","sample_location":"Fan Front","sample_type":"Rock Core","rock_type":"Sedimentary","elev":-2520.19},"geometry":{"type":"Point","coordinates":[77.406175,18.458931]}},{"type":"Feature","properties":{"sample_num":"12 & 13","sample_name":"Hazeltop + Bearwallow","sol":"509 & 516","date":"Jul. 27&Aug. 3, 2022","sample_location":"Fan Front","sample_type":"Rock Core","rock_type":"Sedimentary","elev":-2523.1},"geometry":{"type":"Point","coordinates":[77.405889,18.458637]}},{"type":"Feature","properties":{"sample_num":"14 & 15","sample_name":"Shuyak + Mageik","sol":"575 & 579","date":"Oct. 2&6, 2022","sample_location":"Fan Front","sample_type":"Rock Core","rock_type":"Sedimentary","elev":-2526.53},"geometry":{"type":"Point","coordinates":[77.40144,18.450726]}},{"type":"Feature","properties":{"sample_num":"16","sample_name":"Kukaklek","sol":"631","date":"Nov. 29, 2022","sample_location":"Fan Front","sample_type":"Rock Core","rock_type":"Sedimentary","elev":-2517.09},"geometry":{"type":"Point","coordinates":[77.399114,18.453636]}},{"type":"Feature","properties":{"sample_num":"17 & 18","sample_name":"Atmo Mountain + Crosswind Lake","sol":"634 & 639","date":"Dec. 2&7, 2022","sample_location":"Fan Front","sample_type":"Regolith","rock_type":"Likely mixed sedimentary and igneous grains","elev":-2525.06},"geometry":{"type":"Point","coordinates":[77.401218,18.451314]}},{"type":"Feature","properties":{"sample_num":"19","sample_name":"Melyn","sol":"749","date":"March 30, 2023","sample_location":"Upper Fan","sample_type":"Rock Core","rock_type":"Likely mixed sedimentary and igneous grains","elev":-2448.91},"geometry":{"type":"Point","coordinates":[77.383945,18.470217]}},{"type":"Feature","properties":{"sample_num":"20","sample_name":"Otis Peak","sol":"822","date":"June 23, 2023","sample_location":"Upper Fan","sample_type":"Rock Core","rock_type":"Sedimentary","elev":-2421.03},"geometry":{"type":"Point","coordinates":[77.368153,18.48298]}},{"type":"Feature","properties":{"sample_num":"21","sample_name":"Pilot Mountain","sol":"913","date":"Sept. 15, 2023","sample_location":"Upper Fan","sample_type":"Rock Core","rock_type":"Sedimentary","elev":-2417.74},"geometry":{"type":"Point","coordinates":[77.360469,18.483801]}},{"type":"Feature","properties":{"sample_num":"22","sample_name":"Pelican Point","sol":"923","date":"Sept. 24, 2023","sample_location":"Margin","sample_type":"Rock Core","rock_type":"Sedimentary","elev":-2423.1},"geometry":{"type":"Point","coordinates":[77.350651,18.483447]}},{"type":"Feature","properties":{"sample_num":"23","sample_name":"Lefroy Bay","sol":"942","date":"Oct. 13, 2023","sample_location":"Margin","sample_type":"Rock Core","rock_type":"Sedimentary","elev":-2407.64},"geometry":{"type":"Point","coordinates":[77.350651,18.483447]}},{"type":"Feature","properties":{"sample_num":"24","sample_name":"Comet Geyser","sol":"1088","date":"March 12, 2024","sample_location":"Margin","sample_type":"Rock Core","rock_type":"Silica-cemented Carbonate","elev":-2382.43},"geometry":{"type":"Point","coordinates":[77.327219,18.491867]}},{"type":"Feature","properties":{"sample_num":"25","sample_name":"Sapphire_Canyon","sol":"1215","date":"July 21, 2024","sample_location":"Neretva Vallis","sample_type":"Rock Core","rock_type":"Sedimentary","elev":-2354.24},"geometry":{"type":"Point","coordinates":[77.305149,18.497474]}},{"type":"Feature","properties":{"sample_num":"26","sample_name":"Silver Mountain","sol":"1401","date":"Jan. 28, 2025","sample_location":"Crater Rim (Witch Hazel Hill)","sample_type":"Rock Core","rock_type":"Igneous/impactite","elev":-1820.05},"geometry":{"type":"Point","coordinates":[77.264744,18.460592]}},{"type":"Feature","properties":{"sample_num":"27","sample_name":"Green Gardens","sol":"1433","date":"March 2, 2025","sample_location":"Crater Rim (Witch Hazel Hill)","sample_type":"Rock Core","rock_type":"Serpentinite","elev":-1821.05},"geometry":{"type":"Point","coordinates":[77.264659,18.460593]}},{"type":"Feature","properties":{"sample_num":"28","sample_name":"Main River","sol":"1441","date":"March 10, 2025","sample_location":"Crater Rim (Witch Hazel Hill)","sample_type":"Rock Core","rock_type":"Igneous/impactite","elev":-1919.04},"geometry":{"type":"Point","coordinates":[77.258464,18.461723]}},{"type":"Feature","properties":{"sample_num":"29","sample_name":"Bell Island","sol":"1483","date":"April 21, 2025","sample_location":"Crater Rim (Witch Hazel Hill)","sample_type":"Rock Core","rock_type":"Igneous/impactite","elev":-1925.65},"geometry":{"type":"Point","coordinates":[77.257899,18.462251]}},{"type":"Feature","properties":{"sample_num":"30","sample_name":"Gallants","sol":"TBD","date":"TBD","sample_location":"Crater Rim (Krokodillen)","sample_type":"Rock Core","rock_type":"Igneous or Sedimentary","elev":-1938.75},"geometry":{"type":"Point","coordinates":[77.257231,18.460884]}}]}